"","postcode","town","region","uk_region","country_string"
"1","AB10","Aberdeen","Aberdeen City","Scotland","Scotland"
"2","AB11","Aberdeen","Aberdeen City","Scotland","Scotland"
"3","AB12","Aberdeen","Aberdeen City","Scotland","Scotland"
"4","AB13","Milltimber","Aberdeen City","Scotland","Scotland"
"5","AB14","Peterculter","Aberdeen City","Scotland","Scotland"
"6","AB15","Aberdeen","Aberdeen City","Scotland","Scotland"
"7","AB16","Aberdeen","Aberdeen City","Scotland","Scotland"
"8","AB21","Aberdeen Airport","Aberdeen City","Scotland","Scotland"
"9","AB22","Bridge of Don","Aberdeen City","Scotland","Scotland"
"10","AB23","Aberdeen","Aberdeen City","Scotland","Scotland"
"11","AB24","Aberdeen","Aberdeen City","Scotland","Scotland"
"12","AB25","Aberdeen","Aberdeen City","Scotland","Scotland"
"13","AB30","Laurencekirk","Aberdeenshire","Scotland","Scotland"
"14","AB31","Banchory","Aberdeenshire","Scotland","Scotland"
"15","AB32","Westhill","Aberdeenshire","Scotland","Scotland"
"16","AB33","Alford","Aberdeenshire","Scotland","Scotland"
"17","AB34","Aboyne","Aberdeenshire","Scotland","Scotland"
"18","AB35","Ballatar","Aberdeenshire","Scotland","Scotland"
"19","AB36","Strathdon","Aberdeenshire","Scotland","Scotland"
"20","AB37","Ballindalloch","Moray","Scotland","Scotland"
"21","AB38","Aberlour","Moray","Scotland","Scotland"
"22","AB39","Stonehaven","Aberdeenshire","Scotland","Scotland"
"23","AB41","Ellon","Aberdeenshire","Scotland","Scotland"
"24","AB42","Peterhead","Aberdeenshire","Scotland","Scotland"
"25","AB43","Fraserburgh","Aberdeenshire","Scotland","Scotland"
"26","AB44","Macduff","Aberdeenshire","Scotland","Scotland"
"27","AB45","Banff","Aberdeenshire","Scotland","Scotland"
"28","AB51","Inverurie","Aberdeenshire","Scotland","Scotland"
"29","AB52","Insch","Aberdeenshire","Scotland","Scotland"
"30","AB53","Turriff","Aberdeenshire","Scotland","Scotland"
"31","AB54","Huntly","Aberdeenshire","Scotland","Scotland"
"32","AB55","","Moray","Scotland","Scotland"
"33","AB56","","Moray","Scotland","Scotland"
"34","AL1","St Albans","Hertfordshire","East of England","England"
"35","AL10","Hatfield","Hertfordshire","East of England","England"
"36","AL2","St Albans","Hertfordshire","East of England","England"
"37","AL3","Redbourn","Hertfordshire","East of England","England"
"38","AL4","Sandridge","Hertfordshire","East of England","England"
"39","AL5","Harpenden","Hertfordshire","East of England","England"
"40","AL6","Welwyn","Hertfordshire","East of England","England"
"41","AL7","Welwyn Garden City","Hertfordshire","East of England","England"
"42","AL8","Welwyn Garden City","Hertfordshire","East of England","England"
"43","AL9","Hatfield","Hertfordshire","East of England","England"
"44","B1","","Birmingham","West Midlands","England"
"45","B10","","Birmingham","West Midlands","England"
"46","B11","","Birmingham","West Midlands","England"
"47","B12","","Birmingham","West Midlands","England"
"48","B13","","Birmingham","West Midlands","England"
"49","B14","","Birmingham","West Midlands","England"
"50","B15","","Birmingham","West Midlands","England"
"51","B16","","Birmingham","West Midlands","England"
"52","B17","","Birmingham","West Midlands","England"
"53","B18","","Birmingham","West Midlands","England"
"54","B19","","Birmingham","West Midlands","England"
"55","B2","","Birmingham","West Midlands","England"
"56","B20","","Birmingham","West Midlands","England"
"57","B21","","Birmingham","West Midlands","England"
"58","B23","","Birmingham","West Midlands","England"
"59","B24","","Birmingham","West Midlands","England"
"60","B25","","Birmingham","West Midlands","England"
"61","B26","","Birmingham","West Midlands","England"
"62","B27","","Birmingham","West Midlands","England"
"63","B28","","Birmingham","West Midlands","England"
"64","B29","","Birmingham","West Midlands","England"
"65","B3","","Birmingham","West Midlands","England"
"66","B30","","Birmingham","West Midlands","England"
"67","B31","","Birmingham","West Midlands","England"
"68","B32","","Birmingham","West Midlands","England"
"69","B33","","Birmingham","West Midlands","England"
"70","B34","","Birmingham","West Midlands","England"
"71","B35","","Birmingham","West Midlands","England"
"72","B36","Castle Bromwich","Solihull","West Midlands","England"
"73","B37","Chelmsley Wood","Solihull","West Midlands","England"
"74","B38","Tees Grove","Birmingham","West Midlands","England"
"75","B4","","Birmingham","West Midlands","England"
"76","B40","Bickenhill","Solihull","West Midlands","England"
"77","B42","","Birmingham","West Midlands","England"
"78","B43","West Bromwich","Sandwell","West Midlands","England"
"79","B44","","Birmingham","West Midlands","England"
"80","B45","","Birmingham","West Midlands","England"
"81","B46","Coleshill","Warwickshire","West Midlands","England"
"82","B47","Wythall","Worcestershire","West Midlands","England"
"83","B48","Alvechurch","Worcestershire","West Midlands","England"
"84","B49","Alcester","Warwickshire","West Midlands","England"
"85","B5","","Birmingham","West Midlands","England"
"86","B50","Bidford-on-Avon","Warwickshire","West Midlands","England"
"87","B6","","Birmingham","West Midlands","England"
"88","B60","Bromsgrove","Worcestershire","West Midlands","England"
"89","B61","Bromsgrove","Worcestershire","West Midlands","England"
"90","B62","Hurst Green","Dudley","West Midlands","England"
"91","B63","Hurst Green","Dudley","West Midlands","England"
"92","B64","West Bromwich","Sandwell","West Midlands","England"
"93","B65","West Bromwich","Sandwell","West Midlands","England"
"94","B66","West Bromwich","Sandwell","West Midlands","England"
"95","B67","West Bromwich","Sandwell","West Midlands","England"
"96","B68","West Bromwich","Sandwell","West Midlands","England"
"97","B69","West Bromwich","Sandwell","West Midlands","England"
"98","B7","","Birmingham","West Midlands","England"
"99","B70","West Bromwich","Sandwell","West Midlands","England"
"100","B71","West Bromwich","Sandwell","West Midlands","England"
"101","B72","","Birmingham","West Midlands","England"
"102","B73","","Birmingham","West Midlands","England"
"103","B74","","Birmingham","West Midlands","England"
"104","B75","","Birmingham","West Midlands","England"
"105","B76","","Birmingham","West Midlands","England"
"106","B77","Tamworth","Staffordshire","West Midlands","England"
"107","B78","Tamworth","Staffordshire","West Midlands","England"
"108","B79","Wigginton","Staffordshire","West Midlands","England"
"109","B8","","Birmingham","West Midlands","England"
"110","B80","Studley","Warwickshire","West Midlands","England"
"111","B9","","Birmingham","West Midlands","England"
"112","B90","","Solihull","West Midlands","England"
"113","B91","","Solihull","West Midlands","England"
"114","B92","","Solihull","West Midlands","England"
"115","B93","Dorridge","Solihull","West Midlands","England"
"116","B94","Tanworth-in-Arden","Warwickshire","West Midlands","England"
"117","B95","Henley-in-Arden","Warwickshire","West Midlands","England"
"118","B96","Redditch","Worcestershire","West Midlands","England"
"119","B97","Redditch","Worcestershire","West Midlands","England"
"120","B98","Redditch","Worcestershire","West Midlands","England"
"121","BA1","Bath","Bath and North East Somerset","South West England","England"
"122","BA10","Bruton","Somerset","South West England","England"
"123","BA11","Frome","Somerset","South West England","England"
"124","BA12","Longbridge Deverill","Wiltshire","South West England","England"
"125","BA13","Westbury","Wiltshire","South West England","England"
"126","BA14","Trowbridge","Wiltshire","South West England","England"
"127","BA15","Bradford-on-Avon","Wiltshire","South West England","England"
"128","BA16","Street","Somerset","South West England","England"
"129","BA2","Bath","Bath and North East Somerset","South West England","England"
"130","BA20","Yeovil","Somerset","South West England","England"
"131","BA21","Yeovil","Somerset","South West England","England"
"132","BA22","Mudford","Somerset","South West England","England"
"133","BA3","Kilmersdon","Somerset","South West England","England"
"134","BA4","Shepton Mallet","Somerset","South West England","England"
"135","BA5","St Cuthbert Out","Somerset","South West England","England"
"136","BA6","Glastonbury","Somerset","South West England","England"
"137","BA7","Castle Cary","Somerset","South West England","England"
"138","BA8","Templecombe","Somerset","South West England","England"
"139","BA9","Wincanton","Somerset","South West England","England"
"140","BB1","Darwen","Blackburn with Darwen","North West England","England"
"141","BB10","Burnley","Lancashire","North West England","England"
"142","BB11","Burnley","Lancashire","North West England","England"
"143","BB12","Ightenhill","Lancashire","North West England","England"
"144","BB18","Salterforth","Lancashire","North West England","England"
"145","BB2","Darwen","Blackburn with Darwen","North West England","England"
"146","BB3","Darwen","Blackburn with Darwen","North West England","England"
"147","BB4","Rawtenstall","Lancashire","North West England","England"
"148","BB5","Accrington","Lancashire","North West England","England"
"149","BB6","Accrington","Lancashire","North West England","England"
"150","BB7","Clitheroe","Lancashire","North West England","England"
"151","BB8","Newchurch","Lancashire","North West England","England"
"152","BB9","Newchurch","Lancashire","North West England","England"
"153","BD1","Queensbury","Bradford","Yorkshire and the Humber","England"
"154","BD10","Queensbury","Bradford","Yorkshire and the Humber","England"
"155","BD11","Dewsbury","Kirklees","Yorkshire and the Humber","England"
"156","BD12","Queensbury","Bradford","Yorkshire and the Humber","England"
"157","BD13","Queensbury","Bradford","Yorkshire and the Humber","England"
"158","BD14","Queensbury","Bradford","Yorkshire and the Humber","England"
"159","BD15","Queensbury","Bradford","Yorkshire and the Humber","England"
"160","BD16","Bingley","Bradford","Yorkshire and the Humber","England"
"161","BD17","Queensbury","Bradford","Yorkshire and the Humber","England"
"162","BD18","Queensbury","Bradford","Yorkshire and the Humber","England"
"163","BD19","Dewsbury","Kirklees","Yorkshire and the Humber","England"
"164","BD2","Queensbury","Bradford","Yorkshire and the Humber","England"
"165","BD20","Steeton","Bradford","Yorkshire and the Humber","England"
"166","BD21","Keighley","Bradford","Yorkshire and the Humber","England"
"167","BD22","Keighley","Bradford","Yorkshire and the Humber","England"
"168","BD23","Thorlby","North Yorkshire","Yorkshire and the Humber","England"
"169","BD24","Langcliffe","North Yorkshire","Yorkshire and the Humber","England"
"170","BD3","Queensbury","Bradford","Yorkshire and the Humber","England"
"171","BD4","Queensbury","Bradford","Yorkshire and the Humber","England"
"172","BD5","Queensbury","Bradford","Yorkshire and the Humber","England"
"173","BD6","Queensbury","Bradford","Yorkshire and the Humber","England"
"174","BD7","Queensbury","Bradford","Yorkshire and the Humber","England"
"175","BD8","Queensbury","Bradford","Yorkshire and the Humber","England"
"176","BD9","Queensbury","Bradford","Yorkshire and the Humber","England"
"177","BH1","","Bournemouth","South West England","England"
"178","BH10","","Bournemouth","South West England","England"
"179","BH11","","Bournemouth","South West England","England"
"180","BH12","","Poole","South West England","England"
"181","BH13","","Poole","South West England","England"
"182","BH14","","Poole","South West England","England"
"183","BH15","","Poole","South West England","England"
"184","BH16","Upton","Dorset","South West England","England"
"185","BH17","","Poole","South West England","England"
"186","BH18","","Poole","South West England","England"
"187","BH19","Swanage","Dorset","South West England","England"
"188","BH2","","Bournemouth","South West England","England"
"189","BH20","Wareham","Dorset","South West England","England"
"190","BH21","Colehill","Dorset","South West England","England"
"191","BH22","Ferndown","Dorset","South West England","England"
"192","BH23","Burton","Dorset","South West England","England"
"193","BH24","Ringwood","Hampshire","South East England","England"
"194","BH25","New Milton","Hampshire","South East England","England"
"195","BH3","","Bournemouth","South West England","England"
"196","BH31","Verwood","Dorset","South West England","England"
"197","BH4","","Bournemouth","South West England","England"
"198","BH5","","Bournemouth","South West England","England"
"199","BH6","","Bournemouth","South West England","England"
"200","BH7","","Bournemouth","South West England","England"
"201","BH8","","Bournemouth","South West England","England"
"202","BH9","","Bournemouth","South West England","England"
"203","BL0","Ramsbottom","Bury","North West England","England"
"204","BL1","","Bolton","North West England","England"
"205","BL2","","Bolton","North West England","England"
"206","BL3","","Bolton","North West England","England"
"207","BL4","","Bolton","North West England","England"
"208","BL5","Westhoughton","Bolton","North West England","England"
"209","BL6","Horwich","Bolton","North West England","England"
"210","BL7","","Bolton","North West England","England"
"211","BL8","","Bury","North West England","England"
"212","BL9","","Bury","North West England","England"
"213","BN1","Brighton","Brighton and Hove","South East England","England"
"214","BN10","Peacehaven","East Sussex","South East England","England"
"215","BN11","Worthing","West Sussex","South East England","England"
"216","BN12","Worthing","West Sussex","South East England","England"
"217","BN13","Worthing","West Sussex","South East England","England"
"218","BN14","Worthing","West Sussex","South East England","England"
"219","BN15","Lancing","West Sussex","South East England","England"
"220","BN16","Rustington","West Sussex","South East England","England"
"221","BN17","Littlehampton","West Sussex","South East England","England"
"222","BN18","Arundel","West Sussex","South East England","England"
"223","BN2","Brighton","Brighton and Hove","South East England","England"
"224","BN20","Eastbourne","East Sussex","South East England","England"
"225","BN21","Eastbourne","East Sussex","South East England","England"
"226","BN22","","East Sussex","South East England","England"
"227","BN23","Eastbourne","East Sussex","South East England","England"
"228","BN24","Westham","East Sussex","South East England","England"
"229","BN25","Seaford","East Sussex","South East England","England"
"230","BN26","Long Man","East Sussex","South East England","England"
"231","BN27","Hailsham","East Sussex","South East England","England"
"232","BN3","Brighton","Brighton and Hove","South East England","England"
"233","BN41","Brighton","Brighton and Hove","South East England","England"
"234","BN42","Shoreham-by-Sea","West Sussex","South East England","England"
"235","BN43","Shoreham-by-Sea","West Sussex","South East England","England"
"236","BN44","Steyning","West Sussex","South East England","England"
"237","BN45","Newtimber","West Sussex","South East England","England"
"238","BN5","Henfield","West Sussex","South East England","England"
"239","BN6","Clayton","West Sussex","South East England","England"
"240","BN7","Lewes","East Sussex","South East England","England"
"241","BN8","Ringmer","East Sussex","South East England","England"
"242","BN9","Newhaven","East Sussex","South East England","England"
"243","BR1","Bromley","Greater London","London","England"
"244","BR2","Bromley","Greater London","London","England"
"245","BR3","Bromley","Greater London","London","England"
"246","BR4","Bromley","Greater London","London","England"
"247","BR5","Bromley","Greater London","London","England"
"248","BR6","Bromley","Greater London","London","England"
"249","BR7","Bromley","Greater London","London","England"
"250","BR8","Swanley","Kent","South East England","England"
"251","BS1","Bristol","City of Bristol","South West England","England"
"252","BS10","Bristol","City of Bristol","South West England","England"
"253","BS11","Bristol","City of Bristol","South West England","England"
"254","BS13","Bristol","City of Bristol","South West England","England"
"255","BS14","Bristol","City of Bristol","South West England","England"
"256","BS15","Kingswood","South Gloucestershire","South West England","England"
"257","BS16","Kingswood","South Gloucestershire","South West England","England"
"258","BS2","Bristol","City of Bristol","South West England","England"
"259","BS20","Portbury","North Somerset","South West England","England"
"260","BS21","Clevedon","North Somerset","South West England","England"
"261","BS22","Weston-Super-Mare","North Somerset","South West England","England"
"262","BS23","Weston-Super-Mare","North Somerset","South West England","England"
"263","BS24","Hutton","North Somerset","South West England","England"
"264","BS25","Winscombe","North Somerset","South West England","England"
"265","BS26","Weare","Somerset","South West England","England"
"266","BS27","Cheddar","Somerset","South West England","England"
"267","BS28","Wedmore","Somerset","South West England","England"
"268","BS29","Banwell","North Somerset","South West England","England"
"269","BS3","Bristol","City of Bristol","South West England","England"
"270","BS30","Bitton","South Gloucestershire","South West England","England"
"271","BS31","Keynsham","Bath and North East Somerset","South West England","England"
"272","BS32","Bradley Stoke","South Gloucestershire","South West England","England"
"273","BS34","Stoke Gifford","South Gloucestershire","South West England","England"
"274","BS35","Aust","South Gloucestershire","South West England","England"
"275","BS36","Frampton Cotterell","South Gloucestershire","South West England","England"
"276","BS37","Yate","South Gloucestershire","South West England","England"
"277","BS39","Clutton","Bath and North East Somerset","South West England","England"
"278","BS4","Bristol","City of Bristol","South West England","England"
"279","BS40","Nempnett Thrubwell","Bath and North East Somerset","South West England","England"
"280","BS41","Long Ashton","North Somerset","South West England","England"
"281","BS48","Nailsea","North Somerset","South West England","England"
"282","BS49","Yatton","North Somerset","South West England","England"
"283","BS5","Bristol","City of Bristol","South West England","England"
"284","BS6","Bristol","City of Bristol","South West England","England"
"285","BS7","Bristol","City of Bristol","South West England","England"
"286","BS8","Bristol","City of Bristol","South West England","England"
"287","BS9","Bristol","City of Bristol","South West England","England"
"288","BS99","Bristol","City of Bristol","South West England","England"
"289","BT1","","Belfast","Northern Ireland","Northern Ireland"
"290","BT10","","Belfast","Northern Ireland","Northern Ireland"
"291","BT11","","Belfast","Northern Ireland","Northern Ireland"
"292","BT12","","Belfast","Northern Ireland","Northern Ireland"
"293","BT13","","Belfast","Northern Ireland","Northern Ireland"
"294","BT14","","Belfast","Northern Ireland","Northern Ireland"
"295","BT15","","Belfast","Northern Ireland","Northern Ireland"
"296","BT16","Dundonald","Castlereagh","Northern Ireland","Northern Ireland"
"297","BT17","Dunmurry","Lisburn","Northern Ireland","Northern Ireland"
"298","BT18","Holywood","North Down","Northern Ireland","Northern Ireland"
"299","BT19","Bangor","North Down","Northern Ireland","Northern Ireland"
"300","BT2","","Belfast","Northern Ireland","Northern Ireland"
"301","BT20","Bangor","North Down","Northern Ireland","Northern Ireland"
"302","BT21","Donaghadee","Ards","Northern Ireland","Northern Ireland"
"303","BT22","","Ards","Northern Ireland","Northern Ireland"
"304","BT23","","Ards","Northern Ireland","Northern Ireland"
"305","BT24","","Down","Northern Ireland","Northern Ireland"
"306","BT25","","Banbridge","Northern Ireland","Northern Ireland"
"307","BT26","","Lisburn","Northern Ireland","Northern Ireland"
"308","BT27","","Lisburn","Northern Ireland","Northern Ireland"
"309","BT28","","Lisburn","Northern Ireland","Northern Ireland"
"310","BT29","","Antrim","Northern Ireland","Northern Ireland"
"311","BT3","","Belfast","Northern Ireland","Northern Ireland"
"312","BT30","Downpatrick","Down","Northern Ireland","Northern Ireland"
"313","BT31","","Banbridge","Northern Ireland","Northern Ireland"
"314","BT32","","Banbridge","Northern Ireland","Northern Ireland"
"315","BT33","Newcastle","Down","Northern Ireland","Northern Ireland"
"316","BT34","","Newry and Mourne","Northern Ireland","Northern Ireland"
"317","BT35","","Newry and Mourne","Northern Ireland","Northern Ireland"
"318","BT36","","Newtownabbey","Northern Ireland","Northern Ireland"
"319","BT37","Whiteabbey","Newtownabbey","Northern Ireland","Northern Ireland"
"320","BT38","","Carrickfergus","Northern Ireland","Northern Ireland"
"321","BT39","","Newtownabbey","Northern Ireland","Northern Ireland"
"322","BT4","","Belfast","Northern Ireland","Northern Ireland"
"323","BT40","","Larne","Northern Ireland","Northern Ireland"
"324","BT41","Mill Town","Antrim","Northern Ireland","Northern Ireland"
"325","BT42","","Ballymena","Northern Ireland","Northern Ireland"
"326","BT43","","Ballymena","Northern Ireland","Northern Ireland"
"327","BT44","","Ballymena","Northern Ireland","Northern Ireland"
"328","BT45","","Magherafelt","Northern Ireland","Northern Ireland"
"329","BT46","","Magherafelt","Northern Ireland","Northern Ireland"
"330","BT47","","Derry","Northern Ireland","Northern Ireland"
"331","BT48","Londonderry","Derry","Northern Ireland","Northern Ireland"
"332","BT49","","Limavady","Northern Ireland","Northern Ireland"
"333","BT5","","Belfast","Northern Ireland","Northern Ireland"
"334","BT51","","Coleraine","Northern Ireland","Northern Ireland"
"335","BT52","","Coleraine","Northern Ireland","Northern Ireland"
"336","BT53","","Ballymoney","Northern Ireland","Northern Ireland"
"337","BT54","Ballycastle","Moyle","Northern Ireland","Northern Ireland"
"338","BT55","Portstewart","Coleraine","Northern Ireland","Northern Ireland"
"339","BT56","Portrush","Coleraine","Northern Ireland","Northern Ireland"
"340","BT57","Bushmills","Moyle","Northern Ireland","Northern Ireland"
"341","BT6","","Belfast","Northern Ireland","Northern Ireland"
"342","BT60","","County Armagh","Northern Ireland","Northern Ireland"
"343","BT61","","County Armagh","Northern Ireland","Northern Ireland"
"344","BT62","Portadown","Craigavon","Northern Ireland","Northern Ireland"
"345","BT63","","Craigavon","Northern Ireland","Northern Ireland"
"346","BT64","","Craigavon","Northern Ireland","Northern Ireland"
"347","BT65","","Craigavon","Northern Ireland","Northern Ireland"
"348","BT66","Lurgan","Craigavon","Northern Ireland","Northern Ireland"
"349","BT67","","Craigavon","Northern Ireland","Northern Ireland"
"350","BT68","","Dungannon","Northern Ireland","Northern Ireland"
"351","BT69","","Dungannon","Northern Ireland","Northern Ireland"
"352","BT7","","Belfast","Northern Ireland","Northern Ireland"
"353","BT70","","Dungannon","Northern Ireland","Northern Ireland"
"354","BT71","","Dungannon","Northern Ireland","Northern Ireland"
"355","BT74","","County Fermanagh","Northern Ireland","Northern Ireland"
"356","BT75","Fivemiletown","Dungannon","Northern Ireland","Northern Ireland"
"357","BT76","","Dungannon","Northern Ireland","Northern Ireland"
"358","BT77","","Dungannon","Northern Ireland","Northern Ireland"
"359","BT78","","Omagh","Northern Ireland","Northern Ireland"
"360","BT79","","Omagh","Northern Ireland","Northern Ireland"
"361","BT8","Carryduff","Castlereagh","Northern Ireland","Northern Ireland"
"362","BT80","","Cookstown","Northern Ireland","Northern Ireland"
"363","BT81","","Strabane","Northern Ireland","Northern Ireland"
"364","BT82","","Strabane","Northern Ireland","Northern Ireland"
"365","BT9","","Belfast","Northern Ireland","Northern Ireland"
"366","BT92","","County Fermanagh","Northern Ireland","Northern Ireland"
"367","BT93","","County Fermanagh","Northern Ireland","Northern Ireland"
"368","BT94","","County Fermanagh","Northern Ireland","Northern Ireland"
"369","CA1","Carlisle","Cumbria","North West England","England"
"370","CA10","Cliburn","Cumbria","North West England","England"
"371","CA11","Catterlen","Cumbria","North West England","England"
"372","CA12","Keswick","Cumbria","North West England","England"
"373","CA13","Cockermouth","Cumbria","North West England","England"
"374","CA14","Workington","Cumbria","North West England","England"
"375","CA15","Maryport","Cumbria","North West England","England"
"376","CA16","Appleby-in-Westmorland","Cumbria","North West England","England"
"377","CA17","Kirkby Stephen","Cumbria","North West England","England"
"378","CA18","Muncaster","Cumbria","North West England","England"
"379","CA19","Muncaster","Cumbria","North West England","England"
"380","CA2","Carlisle","Cumbria","North West England","England"
"381","CA20","Gosforth","Cumbria","North West England","England"
"382","CA21","Beckermet","Cumbria","North West England","England"
"383","CA22","Egremont","Cumbria","North West England","England"
"384","CA23","Cleator Moor","Cumbria","North West England","England"
"385","CA24","Egremont","Cumbria","North West England","England"
"386","CA25","Cleator Moor","Cumbria","North West England","England"
"387","CA26","Arlecdon","Cumbria","North West England","England"
"388","CA27","St Bees","Cumbria","North West England","England"
"389","CA28","Whitehaven","Cumbria","North West England","England"
"390","CA3","Carlisle","Cumbria","North West England","England"
"391","CA4","Wetheral","Cumbria","North West England","England"
"392","CA5","Orton","Cumbria","North West England","England"
"393","CA6","Kirklinton","Cumbria","North West England","England"
"394","CA7","Waverton","Cumbria","North West England","England"
"395","CA8","Brampton","Cumbria","North West England","England"
"396","CA9","Alston","Cumbria","North West England","England"
"397","CB1","Fulbourn","Cambridgeshire","East of England","England"
"398","CB10","Saffron Walden","Essex","East of England","England"
"399","CB11","Newport","Essex","East of England","England"
"400","CB2","Great Shelford","Cambridgeshire","East of England","England"
"401","CB21","Balsham","Cambridgeshire","East of England","England"
"402","CB22","Little Shelford","Cambridgeshire","East of England","England"
"403","CB23","Highfields","Cambridgeshire","East of England","England"
"404","CB24","Over","Cambridgeshire","East of England","England"
"405","CB25","Lode","Cambridgeshire","East of England","England"
"406","CB3","Hardwick","Cambridgeshire","East of England","England"
"407","CB4","Impington","Cambridgeshire","East of England","England"
"408","CB5","Stow cum Quy","Cambridgeshire","East of England","England"
"409","CB6","Downham","Cambridgeshire","East of England","England"
"410","CB7","Soham","Cambridgeshire","East of England","England"
"411","CB8","Woodditton","Cambridgeshire","East of England","England"
"412","CB9","Haverhill","Suffolk","East of England","England"
"413","CF10","Butetown","Cardiff","Wales","Wales"
"414","CF11","Grangetown","Cardiff","Wales","Wales"
"415","CF14","Rhiwbina","Cardiff","Wales","Wales"
"416","CF15","Pentyrch","Cardiff","Wales","Wales"
"417","CF23","Pentwyn","Cardiff","Wales","Wales"
"418","CF24","Adamsdown","Cardiff","Wales","Wales"
"419","CF3","Trowbridge","Cardiff","Wales","Wales"
"420","CF31","","Bridgend","Wales","Wales"
"421","CF32","Garw Valley","Bridgend","Wales","Wales"
"422","CF33","Cynffig","Bridgend","Wales","Wales"
"423","CF34","Maesteg","Bridgend","Wales","Wales"
"424","CF35","Pencoed","Bridgend","Wales","Wales"
"425","CF36","Porthcawl","Bridgend","Wales","Wales"
"426","CF37","Pontypridd","Rhondda Cynon Taff","Wales","Wales"
"427","CF38","Llantwit Fardre","Rhondda Cynon Taff","Wales","Wales"
"428","CF39","Cymmer","Rhondda Cynon Taff","Wales","Wales"
"429","CF40","Tonypandy","Rhondda Cynon Taff","Wales","Wales"
"430","CF41","Ystrad","Rhondda Cynon Taff","Wales","Wales"
"431","CF42","Treorchy","Rhondda Cynon Taff","Wales","Wales"
"432","CF43","Ferndale","Rhondda Cynon Taff","Wales","Wales"
"433","CF44","Aberdare","Rhondda Cynon Taff","Wales","Wales"
"434","CF45","Penrhiwceiber","Rhondda Cynon Taff","Wales","Wales"
"435","CF46","Treharris","Merthyr Tydfil","Wales","Wales"
"436","CF47","Town","Merthyr Tydfil","Wales","Wales"
"437","CF48","Town","Merthyr Tydfil","Wales","Wales"
"438","CF5","Ely","Cardiff","Wales","Wales"
"439","CF61","Llantwit Major","The Vale of Glamorgan","Wales","Wales"
"440","CF62","Barry","The Vale of Glamorgan","Wales","Wales"
"441","CF63","Barry","The Vale of Glamorgan","Wales","Wales"
"442","CF64","Penarth","The Vale of Glamorgan","Wales","Wales"
"443","CF71","Cowbridge","The Vale of Glamorgan","Wales","Wales"
"444","CF72","Llanharan","Rhondda Cynon Taff","Wales","Wales"
"445","CF81","Bargoed","Caerphilly","Wales","Wales"
"446","CF82","Gelligaer","Caerphilly","Wales","Wales"
"447","CF83","","Caerphilly","Wales","Wales"
"448","CH1","Chester","Cheshire West and Chester","North West England","England"
"449","CH2","Upton","Cheshire West and Chester","North West England","England"
"450","CH3","Waverton","Cheshire West and Chester","North West England","England"
"451","CH4","Saltney","Flintshire","Wales","England"
"452","CH41","Birkenhead","Wirral","North West England","England"
"453","CH42","Birkenhead","Wirral","North West England","England"
"454","CH43","Birkenhead","Wirral","North West England","England"
"455","CH44","Wallasey","Wirral","North West England","England"
"456","CH45","Wallasey","Wirral","North West England","England"
"457","CH46","Birkenhead","Wirral","North West England","England"
"458","CH47","Hoylake","Wirral","North West England","England"
"459","CH48","Hoylake","Wirral","North West England","England"
"460","CH49","Birkenhead","Wirral","North West England","England"
"461","CH5","Shotton","Flintshire","Wales","England"
"462","CH6","Flint","Flintshire","Wales","England"
"463","CH60","Heswall","Wirral","North West England","England"
"464","CH61","Heswall","Wirral","North West England","England"
"465","CH62","Birkenhead","Wirral","North West England","England"
"466","CH63","Birkenhead","Wirral","North West England","England"
"467","CH64","Ellesmere Port","Cheshire West and Chester","North West England","England"
"468","CH65","Ellesmere Port","Cheshire West and Chester","North West England","England"
"469","CH66","Ellesmere Port","Cheshire West and Chester","North West England","England"
"470","CH7","Mold","Flintshire","Wales","England"
"471","CH8","Holywell","Flintshire","Wales","England"
"472","CM0","Southminster","Essex","East of England","England"
"473","CM1","Chelmsford","Essex","East of England","England"
"474","CM11","","Essex","East of England","England"
"475","CM12","Billericay","Essex","East of England","England"
"476","CM13","Brentwood","Essex","East of England","England"
"477","CM14","Brentwood","Essex","East of England","England"
"478","CM15","Brentwood","Essex","East of England","England"
"479","CM16","Epping","Essex","East of England","England"
"480","CM17","Harlow","Essex","East of England","England"
"481","CM18","Harlow","Essex","East of England","England"
"482","CM19","Harlow","Essex","East of England","England"
"483","CM2","Great Baddow","Essex","East of England","England"
"484","CM20","Harlow","Essex","East of England","England"
"485","CM21","Sawbridgeworth","Hertfordshire","East of England","England"
"486","CM22","Great Hallingbury","Essex","East of England","England"
"487","CM23","Bishops Stortford","Hertfordshire","East of England","England"
"488","CM24","Stansted Mountfitchet","Essex","East of England","England"
"489","CM3","Danbury","Essex","East of England","England"
"490","CM4","Ingatestone","Essex","East of England","England"
"491","CM5","Ongar","Essex","East of England","England"
"492","CM6","Great Dunmow","Essex","East of England","England"
"493","CM7","Braintree","Essex","East of England","England"
"494","CM77","Braintree","Essex","East of England","England"
"495","CM8","Witham","Essex","East of England","England"
"496","CM9","Heybridge","Essex","East of England","England"
"497","CO1","Colchester","Essex","East of England","England"
"498","CO10","Sudbury","Suffolk","East of England","England"
"499","CO11","Mistley","Essex","East of England","England"
"500","CO12","Harwich","Essex","East of England","England"
"501","CO13","Frinton and Walton","Essex","East of England","England"
"502","CO14","Frinton and Walton","Essex","East of England","England"
"503","CO15","Clacton-on-Sea","Essex","East of England","England"
"504","CO16","Little Clacton","Essex","East of England","England"
"505","CO2","Colchester","Essex","East of England","England"
"506","CO3","Colchester","Essex","East of England","England"
"507","CO4","Colchester","Essex","East of England","England"
"508","CO5","Layer Breton","Essex","East of England","England"
"509","CO6","Fordham","Essex","East of England","England"
"510","CO7","Elmstead","Essex","East of England","England"
"511","CO8","Bures Hamlet","Essex","East of England","England"
"512","CO9","Sible Hedingham","Essex","East of England","England"
"513","CR0","Croydon","Greater London","London","England"
"514","CR2","Croydon","Greater London","London","England"
"515","CR3","Whyteleafe","Surrey","South East England","England"
"516","CR4","Merton","Greater London","London","England"
"517","CR5","Croydon","Greater London","London","England"
"518","CR6","Whyteleafe","Surrey","South East England","England"
"519","CR7","Croydon","Greater London","London","England"
"520","CR8","Croydon","Greater London","London","England"
"521","CR9","Croydon","Greater London","London","England"
"522","CT1","Canterbury","Kent","South East England","England"
"523","CT10","Broadstairs","Kent","South East England","England"
"524","CT11","Margate","Kent","South East England","England"
"525","CT12","Manston","Kent","South East England","England"
"526","CT13","Sandwich","Kent","South East England","England"
"527","CT14","Dover","Kent","South East England","England"
"528","CT15","Whitfield","Kent","South East England","England"
"529","CT16","Dover","Kent","South East England","England"
"530","CT17","Dover","Kent","South East England","England"
"531","CT18","Hawkinge","Kent","South East England","England"
"532","CT19","Folkestone","Kent","South East England","England"
"533","CT2","Canterbury","Kent","South East England","England"
"534","CT20","Folkestone","Kent","South East England","England"
"535","CT21","Hythe","Kent","South East England","England"
"536","CT3","Wingham","Kent","South East England","England"
"537","CT4","Lower Hardres","Kent","South East England","England"
"538","CT5","Canterbury","Kent","South East England","England"
"539","CT6","Canterbury","Kent","South East England","England"
"540","CT7","Birchington","Kent","South East England","England"
"541","CT8","Margate","Kent","South East England","England"
"542","CT9","Margate","Kent","South East England","England"
"543","CV1","","Coventry","West Midlands","England"
"544","CV10","Nuneaton","Warwickshire","West Midlands","England"
"545","CV11","Nuneaton","Warwickshire","West Midlands","England"
"546","CV12","Bedworth","Warwickshire","West Midlands","England"
"547","CV13","Market Bosworth","Leicestershire","East Midlands","England"
"548","CV2","","Coventry","West Midlands","England"
"549","CV21","Rugby","Warwickshire","West Midlands","England"
"550","CV22","Rugby","Warwickshire","West Midlands","England"
"551","CV23","Dunchurch","Warwickshire","West Midlands","England"
"552","CV3","","Coventry","West Midlands","England"
"553","CV31","Leamington Spa","Warwickshire","West Midlands","England"
"554","CV32","Leamington Spa","Warwickshire","West Midlands","England"
"555","CV33","Radford Semele","Warwickshire","West Midlands","England"
"556","CV34","Warwick","Warwickshire","West Midlands","England"
"557","CV35","Wasperton","Warwickshire","West Midlands","England"
"558","CV36","Shipston-on-Stour","Warwickshire","West Midlands","England"
"559","CV37","Stratford-Upon-Avon","Warwickshire","West Midlands","England"
"560","CV4","","Coventry","West Midlands","England"
"561","CV47","Ladbroke","Warwickshire","West Midlands","England"
"562","CV5","","Coventry","West Midlands","England"
"563","CV6","","Coventry","West Midlands","England"
"564","CV7","Hawkes End","Coventry","West Midlands","England"
"565","CV8","Kenilworth","Warwickshire","West Midlands","England"
"566","CV9","Atherstone","Warwickshire","West Midlands","England"
"567","CW1","Crewe","Cheshire East","North West England","England"
"568","CW10","Middlewich","Cheshire East","North West England","England"
"569","CW11","Sandbach","Cheshire East","North West England","England"
"570","CW12","Congleton","Cheshire East","North West England","England"
"571","CW2","Crewe","Cheshire East","North West England","England"
"572","CW3","Bridgemere","Cheshire East","North West England","England"
"573","CW4","Holmes Chapel","Cheshire East","North West England","England"
"574","CW5","Nantwich","Cheshire East","North West England","England"
"575","CW6","Tarporley","Cheshire West and Chester","North West England","England"
"576","CW7","Winsford","Cheshire West and Chester","North West England","England"
"577","CW8","Weaverham","Cheshire West and Chester","North West England","England"
"578","CW9","Northwich","Cheshire West and Chester","North West England","England"
"579","DA1","Dartford","Kent","South East England","England"
"580","DA10","Swanscombe","Kent","South East England","England"
"581","DA11","Gravesend","Kent","South East England","England"
"582","DA12","Gravesend","Kent","South East England","England"
"583","DA13","Meopham Station","Kent","South East England","England"
"584","DA14","Bexley","Greater London","London","England"
"585","DA15","Bexley","Greater London","London","England"
"586","DA16","Bexley","Greater London","London","England"
"587","DA17","Crayford","Greater London","London","England"
"588","DA18","Crayford","Greater London","London","England"
"589","DA2","Darenth","Kent","South East England","England"
"590","DA3","Hartley","Kent","South East England","England"
"591","DA4","Horton Kirby","Kent","South East England","England"
"592","DA5","Bexley","Greater London","London","England"
"593","DA6","Bexley","Greater London","London","England"
"594","DA7","Crayford","Greater London","London","England"
"595","DA8","Crayford","Greater London","London","England"
"596","DA9","Stone","Kent","South East England","England"
"597","DD1","Dundee","Dundee City","Scotland","Scotland"
"598","DD10","","Aberdeenshire","Scotland","Scotland"
"599","DD11","Kirkton","Angus","Scotland","Scotland"
"600","DD2","Dundee","Dundee City","Scotland","Scotland"
"601","DD3","Dundee","Dundee City","Scotland","Scotland"
"602","DD4","Dundee","Dundee City","Scotland","Scotland"
"603","DD5","Dundee","Dundee City","Scotland","Scotland"
"604","DD6","","Fife","Scotland","Scotland"
"605","DD7","Carnoustie","Angus","Scotland","Scotland"
"606","DD8","","Angus","Scotland","Scotland"
"607","DD9","","Angus","Scotland","Scotland"
"608","DE1","","Derby","East Midlands","England"
"609","DE11","Swadlincote","Derbyshire","East Midlands","England"
"610","DE12","Overseal","Derbyshire","East Midlands","England"
"611","DE13","Branston","Staffordshire","West Midlands","England"
"612","DE14","Burton upon Trent","Staffordshire","West Midlands","England"
"613","DE15","Burton upon Trent","Staffordshire","West Midlands","England"
"614","DE21","","Derby","East Midlands","England"
"615","DE22","","Derby","East Midlands","England"
"616","DE23","","Derby","East Midlands","England"
"617","DE24","","Derby","East Midlands","England"
"618","DE3","Mickleover","Derby","East Midlands","England"
"619","DE4","Matlock Bath","Derbyshire","East Midlands","England"
"620","DE45","Bakewell","Derbyshire","East Midlands","England"
"621","DE5","Ripley","Derbyshire","East Midlands","England"
"622","DE55","Alfreton","Derbyshire","East Midlands","England"
"623","DE56","Belper","Derbyshire","East Midlands","England"
"624","DE6","Osmaston","Derbyshire","East Midlands","England"
"625","DE65","Hilton","Derbyshire","East Midlands","England"
"626","DE7","Ilkeston","Derbyshire","East Midlands","England"
"627","DE72","Draycott","Derbyshire","East Midlands","England"
"628","DE73","Swarkestone","Derbyshire","East Midlands","England"
"629","DE74","Lockington","Leicestershire","East Midlands","England"
"630","DE75","Heanor","Derbyshire","East Midlands","England"
"631","DG1","","Dumfries and Galloway","Scotland","Scotland"
"632","DG10","","Dumfries and Galloway","Scotland","Scotland"
"633","DG11","","Dumfries and Galloway","Scotland","Scotland"
"634","DG12","Annan","Dumfries and Galloway","Scotland","Scotland"
"635","DG13","","Dumfries and Galloway","Scotland","Scotland"
"636","DG14","","Dumfries and Galloway","Scotland","Scotland"
"637","DG16","Gretna","Dumfries and Galloway","Scotland","Scotland"
"638","DG2","","Dumfries and Galloway","Scotland","Scotland"
"639","DG3","","Dumfries and Galloway","Scotland","Scotland"
"640","DG4","","Dumfries and Galloway","Scotland","Scotland"
"641","DG5","Dalbeattie","Dumfries and Galloway","Scotland","Scotland"
"642","DG6","Kirkcudbright","Dumfries and Galloway","Scotland","Scotland"
"643","DG7","","Dumfries and Galloway","Scotland","Scotland"
"644","DG8","","Dumfries and Galloway","Scotland","Scotland"
"645","DG9","","Dumfries and Galloway","Scotland","Scotland"
"646","DH1","Durham","County Durham","North East England","England"
"647","DH2","Chester-le-Street","County Durham","North East England","England"
"648","DH3","North Lodge","County Durham","North East England","England"
"649","DH4","Houghton-le-Spring","Sunderland","North East England","England"
"650","DH5","Hetton","Sunderland","North East England","England"
"651","DH6","Shadforth","County Durham","North East England","England"
"652","DH7","Esh","County Durham","North East England","England"
"653","DH8","Burnhope","County Durham","North East England","England"
"654","DH9","Stanley","County Durham","North East England","England"
"655","DL1","","Darlington","North East England","England"
"656","DL10","Skeeby","North Yorkshire","Yorkshire and the Humber","England"
"657","DL11","Marske","North Yorkshire","Yorkshire and the Humber","England"
"658","DL12","Cotherstone","County Durham","North East England","England"
"659","DL13","Stanhope","County Durham","North East England","England"
"660","DL14","Lcp Stanhope and Wolsingham Parishes And","County Durham","North East England","England"
"661","DL15","Lcp Stanhope and Wolsingham Parishes And","County Durham","North East England","England"
"662","DL16","Spennymoor","County Durham","North East England","England"
"663","DL17","Ferryhill","County Durham","North East England","England"
"664","DL2","Halnaby Ave","Darlington","North East England","England"
"665","DL3","","Darlington","North East England","England"
"666","DL4","Shildon","County Durham","North East England","England"
"667","DL5","Great Aycliffe","County Durham","North East England","England"
"668","DL6","Winton","North Yorkshire","Yorkshire and the Humber","England"
"669","DL7","Yafforth","North Yorkshire","Yorkshire and the Humber","England"
"670","DL8","Spennithorne","North Yorkshire","Yorkshire and the Humber","England"
"671","DL9","Colburn","North Yorkshire","Yorkshire and the Humber","England"
"672","DN1","","Doncaster","Yorkshire and the Humber","England"
"673","DN10","Everton","Nottinghamshire","East Midlands","England"
"674","DN11","Tickhill","Doncaster","Yorkshire and the Humber","England"
"675","DN12","Conisbrough","Doncaster","Yorkshire and the Humber","England"
"676","DN14","Airmyn","East Riding of Yorkshire","Yorkshire and the Humber","England"
"677","DN15","","North Lincolnshire","Yorkshire and the Humber","England"
"678","DN16","","North Lincolnshire","Yorkshire and the Humber","England"
"679","DN17","Burringham","North Lincolnshire","Yorkshire and the Humber","England"
"680","DN18","Barton-Upon-Humber","North Lincolnshire","Yorkshire and the Humber","England"
"681","DN19","Barrow-Upon-Humber","North Lincolnshire","Yorkshire and the Humber","England"
"682","DN2","","Doncaster","Yorkshire and the Humber","England"
"683","DN20","Broughton","North Lincolnshire","Yorkshire and the Humber","England"
"684","DN21","Corringham","Lincolnshire","Yorkshire and the Humber","England"
"685","DN22","Clumber and Hardwick","Nottinghamshire","East Midlands","England"
"686","DN3","Edenthorpe","Doncaster","Yorkshire and the Humber","England"
"687","DN31","","North East Lincolnshire","Yorkshire and the Humber","England"
"688","DN32","","North East Lincolnshire","Yorkshire and the Humber","England"
"689","DN33","","North East Lincolnshire","Yorkshire and the Humber","England"
"690","DN34","","North East Lincolnshire","Yorkshire and the Humber","England"
"691","DN35","Cleethorpes","North East Lincolnshire","Yorkshire and the Humber","England"
"692","DN36","Tetney","Lincolnshire","Yorkshire and the Humber","England"
"693","DN37","Bradley","North East Lincolnshire","Yorkshire and the Humber","England"
"694","DN38","Bigby","Lincolnshire","Yorkshire and the Humber","England"
"695","DN39","Ulceby","North Lincolnshire","Yorkshire and the Humber","England"
"696","DN4","","Doncaster","Yorkshire and the Humber","England"
"697","DN40","Immingham","North East Lincolnshire","Yorkshire and the Humber","England"
"698","DN41","Stallingborough","North East Lincolnshire","Yorkshire and the Humber","England"
"699","DN5","Brodsworth","Doncaster","Yorkshire and the Humber","England"
"700","DN6","Owston","Doncaster","Yorkshire and the Humber","England"
"701","DN7","Hatfield","Doncaster","Yorkshire and the Humber","England"
"702","DN8","Thorne","Doncaster","Yorkshire and the Humber","England"
"703","DN9","Haxey","North Lincolnshire","Yorkshire and the Humber","England"
"704","DT1","Dorchester","Dorset","South West England","England"
"705","DT10","Sturminster Newton","Dorset","South West England","England"
"706","DT11","Bryanston","Dorset","South West England","England"
"707","DT2","Charminster","Dorset","South West England","England"
"708","DT3","Weymouth","Dorset","South West England","England"
"709","DT4","Weymouth","Dorset","South West England","England"
"710","DT5","Portland","Dorset","South West England","England"
"711","DT6","Allington","Dorset","South West England","England"
"712","DT7","Lyme Regis","Dorset","South West England","England"
"713","DT8","Beaminster","Dorset","South West England","England"
"714","DT9","Castleton","Dorset","South West England","England"
"715","DY1","","Dudley","West Midlands","England"
"716","DY10","Kidderminster","Worcestershire","West Midlands","England"
"717","DY11","Kidderminster","Worcestershire","West Midlands","England"
"718","DY12","Upper Arley","Worcestershire","West Midlands","England"
"719","DY13","Stourport-on-Severn","Worcestershire","West Midlands","England"
"720","DY14","Cleobury Mortimer","Shropshire","West Midlands","England"
"721","DY2","","Dudley","West Midlands","England"
"722","DY3","","Dudley","West Midlands","England"
"723","DY4","West Bromwich","Sandwell","West Midlands","England"
"724","DY5","","Dudley","West Midlands","England"
"725","DY6","","Dudley","West Midlands","England"
"726","DY7","Kinver","Staffordshire","West Midlands","England"
"727","DY8","","Dudley","West Midlands","England"
"728","DY9","","Dudley","West Midlands","England"
"729","E1","Poplar","Greater London","London","England"
"730","E10","Walthamstow","Greater London","London","England"
"731","E11","Walthamstow","Greater London","London","England"
"732","E12","Stratford","Greater London","London","England"
"733","E13","East Ham","Greater London","London","England"
"734","E14","Poplar","Greater London","London","England"
"735","E15","Stratford","Greater London","London","England"
"736","E16","East Ham","Greater London","London","England"
"737","E17","Walthamstow","Greater London","London","England"
"738","E18","Ilford","Greater London","London","England"
"739","E1W","Poplar","Greater London","London","England"
"740","E2","Poplar","Greater London","London","England"
"741","E20","Queen Elizabeth Olympic Park","Greater London","London","England"
"742","E3","Poplar","Greater London","London","England"
"743","E4","Walthamstow","Greater London","London","England"
"744","E5","Hackney","Greater London","London","England"
"745","E6","East Ham","Greater London","London","England"
"746","E7","Stratford","Greater London","London","England"
"747","E8","Hackney","Greater London","London","England"
"748","E9","Hackney","Greater London","London","England"
"749","EC1","Islington","Greater London","London","England"
"750","EC1A","Islington","Greater London","London","England"
"751","EC1M","Islington","Greater London","London","England"
"752","EC1N","Camden Town","Greater London","London","England"
"753","EC1R","Islington","Greater London","London","England"
"754","EC1V","Islington","Greater London","London","England"
"755","EC1Y","Islington","Greater London","London","England"
"756","EC2","Islington","Greater London","London","England"
"757","EC2A","Islington","Greater London","London","England"
"758","EC2M","","City of London","London","England"
"759","EC2N","","City of London","London","England"
"760","EC2P","","City of London","London","England"
"761","EC2R","","City of London","London","England"
"762","EC2V","","City of London","London","England"
"763","EC2Y","","City of London","London","England"
"764","EC3","","City of London","London","England"
"765","EC3A","","City of London","London","England"
"766","EC3M","","City of London","London","England"
"767","EC3N","","City of London","London","England"
"768","EC3P","Islington","Greater London","London","England"
"769","EC3R","","City of London","London","England"
"770","EC3V","","City of London","London","England"
"771","EC4","","City of London","London","England"
"772","EC4A","","City of London","London","England"
"773","EC4M","","City of London","London","England"
"774","EC4N","","City of London","London","England"
"775","EC4R","","City of London","London","England"
"776","EC4V","","City of London","London","England"
"777","EC4Y","","City of London","London","England"
"778","EH1","Old Town","City of Edinburgh","Scotland","Scotland"
"779","EH10","Morningside, Braid Hill and Swanston","City of Edinburgh","Scotland","Scotland"
"780","EH11","Gorgie, Stenhouse and Sighthill","City of Edinburgh","Scotland","Scotland"
"781","EH12","Murrayfield, Corstorphine and Gogar","City of Edinburgh","Scotland","Scotland"
"782","EH13","Colinton and Oxgangs","City of Edinburgh","Scotland","Scotland"
"783","EH14","Juniper Green, Currie and Balerno","City of Edinburgh","Scotland","Scotland"
"784","EH15","Portobello","City of Edinburgh","Scotland","Scotland"
"785","EH16","Liberton and Craigmillar","City of Edinburgh","Scotland","Scotland"
"786","EH17","Moredun","City of Edinburgh","Scotland","Scotland"
"787","EH18","Bonnyrigg and Lasswade","Midlothian","Scotland","Scotland"
"788","EH19","Bonnyrigg and Lasswade","Midlothian","Scotland","Scotland"
"789","EH2","New Town","City of Edinburgh","Scotland","Scotland"
"790","EH20","Loanhead","Midlothian","Scotland","Scotland"
"791","EH21","Musselburgh","East Lothian","Scotland","Scotland"
"792","EH22","Dalkeith","Midlothian","Scotland","Scotland"
"793","EH23","Arniston","Midlothian","Scotland","Scotland"
"794","EH24","Rosewell","Midlothian","Scotland","Scotland"
"795","EH25","Roslin","Midlothian","Scotland","Scotland"
"796","EH26","Penicuik","Midlothian","Scotland","Scotland"
"797","EH27","Kirknewton","West Lothian","Scotland","Scotland"
"798","EH28","Newbridge and Ratho","City of Edinburgh","Scotland","Scotland"
"799","EH29","Kirkliston","City of Edinburgh","Scotland","Scotland"
"800","EH3","Inverleith, New Town and Fountainbridge","City of Edinburgh","Scotland","Scotland"
"801","EH30","Queensferry","City of Edinburgh","Scotland","Scotland"
"802","EH31","Gullane","East Lothian","Scotland","Scotland"
"803","EH32","Cockenzie and Port Seton","East Lothian","Scotland","Scotland"
"804","EH33","Tranent","East Lothian","Scotland","Scotland"
"805","EH34","Pencaitland","East Lothian","Scotland","Scotland"
"806","EH35","Ormiston","East Lothian","Scotland","Scotland"
"807","EH36","Humbie","East Lothian","Scotland","Scotland"
"808","EH37","Pathhead","Midlothian","Scotland","Scotland"
"809","EH38","Heriot","The Scottish Borders","Scotland","Scotland"
"810","EH39","North Berwick","East Lothian","Scotland","Scotland"
"811","EH4","Davidson's Mains, Barnton and Cramond","City of Edinburgh","Scotland","Scotland"
"812","EH40","East Linton","East Lothian","Scotland","Scotland"
"813","EH41","Haddington and Gifford","East Lothian","Scotland","Scotland"
"814","EH42","Dunbar","East Lothian","Scotland","Scotland"
"815","EH43","Walkerburn","The Scottish Borders","Scotland","Scotland"
"816","EH44","Innerleithen","The Scottish Borders","Scotland","Scotland"
"817","EH45","Peebles","The Scottish Borders","Scotland","Scotland"
"818","EH46","West Linton and Dolphinton","The Scottish Borders","Scotland","Scotland"
"819","EH47","Blackburn, Whitburn and Fauldhouse","West Lothian","Scotland","Scotland"
"820","EH48","Bathgate","West Lothian","Scotland","Scotland"
"821","EH49","Linlithgow","West Lothian","Scotland","Scotland"
"822","EH5","Granton and Trinity","City of Edinburgh","Scotland","Scotland"
"823","EH51","Grangepans","Falkirk","Scotland","Scotland"
"824","EH52","Broxburn","West Lothian","Scotland","Scotland"
"825","EH53","Livingston","West Lothian","Scotland","Scotland"
"826","EH54","Livingston","West Lothian","Scotland","Scotland"
"827","EH55","West Calder","West Lothian","Scotland","Scotland"
"828","EH6","Newhaven and Leith","City of Edinburgh","Scotland","Scotland"
"829","EH7","Bonnington, Lochend and Craigentinny","City of Edinburgh","Scotland","Scotland"
"830","EH8","South Bridge, Holyrood and Willowbrae","City of Edinburgh","Scotland","Scotland"
"831","EH9","Marchmont and Blackford","City of Edinburgh","Scotland","Scotland"
"832","EN1","Enfield","Greater London","London","England"
"833","EN10","Broxbourne","Hertfordshire","East of England","England"
"834","EN11","Hoddesdon","Hertfordshire","East of England","England"
"835","EN2","Enfield","Greater London","London","England"
"836","EN3","Enfield","Greater London","London","England"
"837","EN4","Barnet","Greater London","London","England"
"838","EN5","Barnet","Greater London","London","England"
"839","EN6","Potters Bar","Hertfordshire","East of England","England"
"840","EN7","Broxbourne","Hertfordshire","East of England","England"
"841","EN8","Broxbourne","Hertfordshire","East of England","England"
"842","EN9","Waltham Abbey","Essex","East of England","England"
"843","EX1","Exeter","Devon","South West England","England"
"844","EX10","Sidmouth","Devon","South West England","England"
"845","EX11","Ottery St Mary","Devon","South West England","England"
"846","EX12","Seaton","Devon","South West England","England"
"847","EX13","Axminster","Devon","South West England","England"
"848","EX14","Honiton","Devon","South West England","England"
"849","EX15","Kentisbeare","Devon","South West England","England"
"850","EX16","Tiverton","Devon","South West England","England"
"851","EX17","Sandford","Devon","South West England","England"
"852","EX18","Chawleigh","Devon","South West England","England"
"853","EX19","Dowland","Devon","South West England","England"
"854","EX2","Exeter","Devon","South West England","England"
"855","EX20","Okehampton Hamlets","Devon","South West England","England"
"856","EX21","Black Torrington","Devon","South West England","England"
"857","EX22","Holsworthy Hamlets","Devon","South West England","England"
"858","EX23","Bude","Cornwall","South West England","England"
"859","EX24","Colyton","Devon","South West England","England"
"860","EX3","Exeter","Devon","South West England","England"
"861","EX31","Barnstaple","Devon","South West England","England"
"862","EX32","Barnstaple","Devon","South West England","England"
"863","EX33","Braunton","Devon","South West England","England"
"864","EX34","Ilfracombe","Devon","South West England","England"
"865","EX35","Lynton","Devon","South West England","England"
"866","EX36","Bishops Nympton","Devon","South West England","England"
"867","EX37","High Bickington","Devon","South West England","England"
"868","EX38","Little Torrington","Devon","South West England","England"
"869","EX39","Abbotsham","Devon","South West England","England"
"870","EX4","Exeter","Devon","South West England","England"
"871","EX5","Broad Clyst","Devon","South West England","England"
"872","EX6","Doddiscombsleigh","Devon","South West England","England"
"873","EX7","Dawlish","Devon","South West England","England"
"874","EX8","Exmouth","Devon","South West England","England"
"875","EX9","Budleigh Salterton","Devon","South West England","England"
"876","FK1","","Falkirk","Scotland","Scotland"
"877","FK10","Alloa","Clackmannanshire","Scotland","Scotland"
"878","FK11","Menstrie","Clackmannanshire","Scotland","Scotland"
"879","FK12","Alva","Clackmannanshire","Scotland","Scotland"
"880","FK13","Tillicoultry","Clackmannanshire","Scotland","Scotland"
"881","FK14","","Clackmannanshire","Scotland","Scotland"
"882","FK15","","Stirling","Scotland","Scotland"
"883","FK16","Doune","Stirling","Scotland","Scotland"
"884","FK17","Callander","Stirling","Scotland","Scotland"
"885","FK18","Strathyre","Stirling","Scotland","Scotland"
"886","FK19","","Stirling","Scotland","Scotland"
"887","FK2","Hope St","Falkirk","Scotland","Scotland"
"888","FK20","","Stirling","Scotland","Scotland"
"889","FK21","Killin","Stirling","Scotland","Scotland"
"890","FK3","Grangemouth","Falkirk","Scotland","Scotland"
"891","FK4","Dennyloanhead","Falkirk","Scotland","Scotland"
"892","FK5","","Falkirk","Scotland","Scotland"
"893","FK6","Stoneywood","Falkirk","Scotland","Scotland"
"894","FK7","","Stirling","Scotland","Scotland"
"895","FK8","","Stirling","Scotland","Scotland"
"896","FK9","Bridge of Allan","Stirling","Scotland","Scotland"
"897","FY1","","Blackpool","North West England","England"
"898","FY2","","Blackpool","North West England","England"
"899","FY3","","Blackpool","North West England","England"
"900","FY4","","Blackpool","North West England","England"
"901","FY5","Hardhorn and Thornton","Lancashire","North West England","England"
"902","FY6","Hardhorn and Thornton","Lancashire","North West England","England"
"903","FY7","Hardhorn and Thornton","Lancashire","North West England","England"
"904","FY8","Lytham Saint Annes","Lancashire","North West England","England"
"905","G1","Glasgow","Glasgow City","Scotland","Scotland"
"906","G11","Glasgow","Glasgow City","Scotland","Scotland"
"907","G12","Glasgow","Glasgow City","Scotland","Scotland"
"908","G13","Glasgow","Glasgow City","Scotland","Scotland"
"909","G14","Glasgow","Glasgow City","Scotland","Scotland"
"910","G15","Glasgow","Glasgow City","Scotland","Scotland"
"911","G2","Glasgow","Glasgow City","Scotland","Scotland"
"912","G20","Glasgow","Glasgow City","Scotland","Scotland"
"913","G21","Glasgow","Glasgow City","Scotland","Scotland"
"914","G22","Glasgow","Glasgow City","Scotland","Scotland"
"915","G23","Glasgow","Glasgow City","Scotland","Scotland"
"916","G3","Glasgow","Glasgow City","Scotland","Scotland"
"917","G31","Glasgow","Glasgow City","Scotland","Scotland"
"918","G32","Glasgow","Glasgow City","Scotland","Scotland"
"919","G33","Glasgow","Glasgow City","Scotland","Scotland"
"920","G34","Glasgow","Glasgow City","Scotland","Scotland"
"921","G4","Glasgow","Glasgow City","Scotland","Scotland"
"922","G40","Glasgow","Glasgow City","Scotland","Scotland"
"923","G41","Glasgow","Glasgow City","Scotland","Scotland"
"924","G42","Glasgow","Glasgow City","Scotland","Scotland"
"925","G43","Glasgow","Glasgow City","Scotland","Scotland"
"926","G44","Glasgow","Glasgow City","Scotland","Scotland"
"927","G45","Glasgow","Glasgow City","Scotland","Scotland"
"928","G46","Thornliebank","East Renfrewshire","Scotland","Scotland"
"929","G5","Glasgow","Glasgow City","Scotland","Scotland"
"930","G51","Glasgow","Glasgow City","Scotland","Scotland"
"931","G52","Glasgow","Glasgow City","Scotland","Scotland"
"932","G53","Glasgow","Glasgow City","Scotland","Scotland"
"933","G60","Clydebank","West Dunbartonshire","Scotland","Scotland"
"934","G61","Milngavie","East Dunbartonshire","Scotland","Scotland"
"935","G62","Milngavie","East Dunbartonshire","Scotland","Scotland"
"936","G63","Killearn","Stirling","Scotland","Scotland"
"937","G64","Bishopbriggs","East Dunbartonshire","Scotland","Scotland"
"938","G65","Kilsyth","North Lanarkshire","Scotland","Scotland"
"939","G66","Kirkintilloch","East Dunbartonshire","Scotland","Scotland"
"940","G67","Cumbernauld","North Lanarkshire","Scotland","Scotland"
"941","G68","Balloch","North Lanarkshire","Scotland","Scotland"
"942","G69","Glasgow","Glasgow City","Scotland","Scotland"
"943","G71","","South Lanarkshire","Scotland","Scotland"
"944","G72","","South Lanarkshire","Scotland","Scotland"
"945","G73","Cambuslang","South Lanarkshire","Scotland","Scotland"
"946","G74","East Kilbride","South Lanarkshire","Scotland","Scotland"
"947","G76","Thornliebank","East Renfrewshire","Scotland","Scotland"
"948","G77","Newton Mearns","East Renfrewshire","Scotland","Scotland"
"949","G78","","East Renfrewshire","Scotland","Scotland"
"950","G81","Clydebank","West Dunbartonshire","Scotland","Scotland"
"951","G82","Dumbarton","West Dunbartonshire","Scotland","Scotland"
"952","G83","Alexandria","West Dunbartonshire","Scotland","Scotland"
"953","G84","Helensburgh","Argyll and Bute","Scotland","Scotland"
"954","GL1","Gloucester","Gloucestershire","South West England","England"
"955","GL10","Stonehouse","Gloucestershire","South West England","England"
"956","GL11","Dursley","Gloucestershire","South West England","England"
"957","GL12","Kingswood","Gloucestershire","South West England","England"
"958","GL13","Berkeley","Gloucestershire","South West England","England"
"959","GL14","Littledean","Gloucestershire","South West England","England"
"960","GL15","Lydney","Gloucestershire","South West England","England"
"961","GL16","Coleford","Gloucestershire","South West England","England"
"962","GL17","Drybrook","Gloucestershire","South West England","England"
"963","GL18","Oxenhall","Gloucestershire","South West England","England"
"964","GL19","Ashleworth","Gloucestershire","South West England","England"
"965","GL2","Gloucester","Gloucestershire","South West England","England"
"966","GL20","Ashchurch","Gloucestershire","South West England","England"
"967","GL3","Hucclecote","Gloucestershire","South West England","England"
"968","GL4","Gloucester","Gloucestershire","South West England","England"
"969","GL5","Rodborough","Gloucestershire","South West England","England"
"970","GL50","Cheltenham","Gloucestershire","South West England","England"
"971","GL51","Cheltenham","Gloucestershire","South West England","England"
"972","GL52","Prestbury","Gloucestershire","South West England","England"
"973","GL53","Cheltenham","Gloucestershire","South West England","England"
"974","GL54","Naunton","Gloucestershire","South West England","England"
"975","GL55","Chipping Campden","Gloucestershire","South West England","England"
"976","GL56","Moreton-in-Marsh","Gloucestershire","South West England","England"
"977","GL6","Thrupp","Gloucestershire","South West England","England"
"978","GL7","Ampney St Mary","Gloucestershire","South West England","England"
"979","GL8","Tetbury","Gloucestershire","South West England","England"
"980","GL9","Hawkesbury","South Gloucestershire","South West England","England"
"981","GU1","Guildford","Surrey","South East England","England"
"982","GU10","Farnham","Surrey","South East England","England"
"983","GU11","Aldershot","Hampshire","South East England","England"
"984","GU12","Ash","Surrey","South East England","England"
"985","GU13","Fleet","Hampshire","South East England","England"
"986","GU14","Farnborough","Hampshire","South East England","England"
"987","GU15","Camberley","Surrey","South East England","England"
"988","GU16","Camberley","Surrey","South East England","England"
"989","GU17","Blackwater and Hawley","Hampshire","South East England","England"
"990","GU18","Windlesham","Surrey","South East England","England"
"991","GU19","Windlesham","Surrey","South East England","England"
"992","GU2","Guildford","Surrey","South East England","England"
"993","GU20","Windlesham","Surrey","South East England","England"
"994","GU21","Woking","Surrey","South East England","England"
"995","GU22","Woking","Surrey","South East England","England"
"996","GU23","Ripley","Surrey","South East England","England"
"997","GU24","Bisley","Surrey","South East England","England"
"998","GU25","Virginia Water","Surrey","South East England","England"
"999","GU26","Haslemere","Surrey","South East England","England"
"1000","GU27","Haslemere","Surrey","South East England","England"
"1001","GU28","Tillington","West Sussex","South East England","England"
"1002","GU29","Midhurst","West Sussex","South East England","England"
"1003","GU3","Worplesdon","Surrey","South East England","England"
"1004","GU30","Liphook","Hampshire","South East England","England"
"1005","GU31","Petersfield","Hampshire","South East England","England"
"1006","GU32","Stroud","Hampshire","South East England","England"
"1007","GU33","Liss","Hampshire","South East England","England"
"1008","GU34","Alton","Hampshire","South East England","England"
"1009","GU35","Lindford","Hampshire","South East England","England"
"1010","GU4","Guildford","Surrey","South East England","England"
"1011","GU46","Yateley","Hampshire","South East England","England"
"1012","GU47","Sandhurst","Bracknell Forest","South East England","England"
"1013","GU5","Wonersh","Surrey","South East England","England"
"1014","GU51","Fleet","Hampshire","South East England","England"
"1015","GU52","Fleet","Hampshire","South East England","England"
"1016","GU6","Cranleigh","Surrey","South East England","England"
"1017","GU7","Godalming","Surrey","South East England","England"
"1018","GU8","Witley","Surrey","South East England","England"
"1019","GU9","Farnham","Surrey","South East England","England"
"1020","GY1","St Peter Port","Guernsey","Crown Dependencies","Guernsey"
"1021","GY2","St Sampson","Guernsey","Crown Dependencies","Guernsey"
"1022","GY3","St Sampson","Guernsey","Crown Dependencies","Guernsey"
"1023","GY4","Carmel","Guernsey","Crown Dependencies","Guernsey"
"1024","GY5","ALBecq","Guernsey","Crown Dependencies","Guernsey"
"1025","GY6","L'Islet","Guernsey","Crown Dependencies","Guernsey"
"1026","GY7","Richmond","Guernsey","Crown Dependencies","Guernsey"
"1027","GY8","Mouilpied","Guernsey","Crown Dependencies","Guernsey"
"1028","GY9","nr Mouilpied","Guernsey","Crown Dependencies","Guernsey"
"1029","HA0","Brent","Greater London","London","England"
"1030","HA1","Harrow","Greater London","London","England"
"1031","HA2","Harrow","Greater London","London","England"
"1032","HA3","Harrow","Greater London","London","England"
"1033","HA4","Hillingdon","Greater London","London","England"
"1034","HA5","Harrow","Greater London","London","England"
"1035","HA6","Hillingdon","Greater London","London","England"
"1036","HA7","Harrow","Greater London","London","England"
"1037","HA8","Barnet","Greater London","London","England"
"1038","HA9","Brent","Greater London","London","England"
"1039","HD1","Huddersfield","Kirklees","Yorkshire and the Humber","England"
"1040","HD2","Huddersfield","Kirklees","Yorkshire and the Humber","England"
"1041","HD3","Huddersfield","Kirklees","Yorkshire and the Humber","England"
"1042","HD4","Huddersfield","Kirklees","Yorkshire and the Humber","England"
"1043","HD5","Huddersfield","Kirklees","Yorkshire and the Humber","England"
"1044","HD6","Halifax","Calderdale","Yorkshire and the Humber","England"
"1045","HD7","Huddersfield","Kirklees","Yorkshire and the Humber","England"
"1046","HD8","Kirkburton","Kirklees","Yorkshire and the Humber","England"
"1047","HD9","Holme","Kirklees","Yorkshire and the Humber","England"
"1048","HG1","Harrogate","North Yorkshire","Yorkshire and the Humber","England"
"1049","HG2","Harrogate","North Yorkshire","Yorkshire and the Humber","England"
"1050","HG3","Clint","North Yorkshire","Yorkshire and the Humber","England"
"1051","HG4","North Stainley","North Yorkshire","Yorkshire and the Humber","England"
"1052","HG5","Knaresborough","North Yorkshire","Yorkshire and the Humber","England"
"1053","HP1","Hemel Hempstead","Hertfordshire","East of England","England"
"1054","HP10","Chepping Wycombe","Buckinghamshire","South East England","England"
"1055","HP11","High Wycombe","Buckinghamshire","South East England","England"
"1056","HP12","High Wycombe","Buckinghamshire","South East England","England"
"1057","HP13","High Wycombe","Buckinghamshire","South East England","England"
"1058","HP14","Bledlow-cum-Saunderton","Buckinghamshire","South East England","England"
"1059","HP15","Hazlemere","Buckinghamshire","South East England","England"
"1060","HP16","Great Missenden","Buckinghamshire","South East England","England"
"1061","HP17","Dinton","Buckinghamshire","South East England","England"
"1062","HP18","Ashendon","Buckinghamshire","South East England","England"
"1063","HP19","Aylesbury","Buckinghamshire","South East England","England"
"1064","HP2","Hemel Hempstead","Hertfordshire","East of England","England"
"1065","HP20","Aylesbury","Buckinghamshire","South East England","England"
"1066","HP21","Aylesbury","Buckinghamshire","South East England","England"
"1067","HP22","Weston Turville","Buckinghamshire","South East England","England"
"1068","HP23","Tring","Hertfordshire","East of England","England"
"1069","HP27","Princes Risborough","Buckinghamshire","South East England","England"
"1070","HP3","Hemel Hempstead","Hertfordshire","East of England","England"
"1071","HP4","Berkhamsted","Hertfordshire","East of England","England"
"1072","HP5","Chesham","Buckinghamshire","South East England","England"
"1073","HP6","Amersham","Buckinghamshire","South East England","England"
"1074","HP7","Amersham","Buckinghamshire","South East England","England"
"1075","HP8","Chalfont St Giles","Buckinghamshire","South East England","England"
"1076","HP9","Beaconsfield","Buckinghamshire","South East England","England"
"1077","HR1","Hampton Bishop","Herefordshire","West Midlands","England"
"1078","HR2","Allensmore","Herefordshire","West Midlands","England"
"1079","HR3","Clifford","Herefordshire","West Midlands","England"
"1080","HR4","Burghill","Herefordshire","West Midlands","England"
"1081","HR5","Kington Rural","Herefordshire","West Midlands","England"
"1082","HR6","Leominster","Herefordshire","West Midlands","England"
"1083","HR7","Bromyard","Herefordshire","West Midlands","England"
"1084","HR8","Ledbury","Herefordshire","West Midlands","England"
"1085","HR9","Ross-on-Wye","Herefordshire","West Midlands","England"
"1086","HS1","Stornoway","Eilean Siar","Scotland","Scotland"
"1087","HS2","","Eilean Siar","Scotland","Scotland"
"1088","HS3","","Eilean Siar","Scotland","Scotland"
"1089","HS4","","Eilean Siar","Scotland","Scotland"
"1090","HS5","Leverburgh","Eilean Siar","Scotland","Scotland"
"1091","HS6","","Eilean Siar","Scotland","Scotland"
"1092","HS7","","Eilean Siar","Scotland","Scotland"
"1093","HS8","","Eilean Siar","Scotland","Scotland"
"1094","HS9","","Eilean Siar","Scotland","Scotland"
"1095","HU1","Hull","City of Kingston-upon-Hull","Yorkshire and the Humber","England"
"1096","HU10","Cottingham","East Riding of Yorkshire","Yorkshire and the Humber","England"
"1097","HU11","Ellerby","East Riding of Yorkshire","Yorkshire and the Humber","England"
"1098","HU12","Burstwick","East Riding of Yorkshire","Yorkshire and the Humber","England"
"1099","HU13","Hessle","East Riding of Yorkshire","Yorkshire and the Humber","England"
"1100","HU14","North Ferriby","East Riding of Yorkshire","Yorkshire and the Humber","England"
"1101","HU15","Ellerker","East Riding of Yorkshire","Yorkshire and the Humber","England"
"1102","HU16","Cottingham","East Riding of Yorkshire","Yorkshire and the Humber","England"
"1103","HU17","Cottingham","East Riding of Yorkshire","Yorkshire and the Humber","England"
"1104","HU18","Hornsea","East Riding of Yorkshire","Yorkshire and the Humber","England"
"1105","HU19","Withernsea","East Riding of Yorkshire","Yorkshire and the Humber","England"
"1106","HU2","Hull","City of Kingston-upon-Hull","Yorkshire and the Humber","England"
"1107","HU20","Rowley","East Riding of Yorkshire","Yorkshire and the Humber","England"
"1108","HU3","Hull","City of Kingston-upon-Hull","Yorkshire and the Humber","England"
"1109","HU4","Hull","City of Kingston-upon-Hull","Yorkshire and the Humber","England"
"1110","HU5","Hull","City of Kingston-upon-Hull","Yorkshire and the Humber","England"
"1111","HU6","Hull","City of Kingston-upon-Hull","Yorkshire and the Humber","England"
"1112","HU7","Hull","City of Kingston-upon-Hull","Yorkshire and the Humber","England"
"1113","HU8","Hull","City of Kingston-upon-Hull","Yorkshire and the Humber","England"
"1114","HU9","Hull","City of Kingston-upon-Hull","Yorkshire and the Humber","England"
"1115","HX1","Halifax","Calderdale","Yorkshire and the Humber","England"
"1116","HX2","Halifax","Calderdale","Yorkshire and the Humber","England"
"1117","HX3","Halifax","Calderdale","Yorkshire and the Humber","England"
"1118","HX4","Halifax","Calderdale","Yorkshire and the Humber","England"
"1119","HX5","Halifax","Calderdale","Yorkshire and the Humber","England"
"1120","HX6","Halifax","Calderdale","Yorkshire and the Humber","England"
"1121","HX7","Hebden Royd","Calderdale","Yorkshire and the Humber","England"
"1122","IG1","Ilford","Greater London","London","England"
"1123","IG10","Loughton","Essex","East of England","England"
"1124","IG11","Barking","Greater London","London","England"
"1125","IG2","Ilford","Greater London","London","England"
"1126","IG3","Ilford","Greater London","London","England"
"1127","IG4","Ilford","Greater London","London","England"
"1128","IG5","Ilford","Greater London","London","England"
"1129","IG6","Ilford","Greater London","London","England"
"1130","IG7","Loughton","Essex","East of England","England"
"1131","IG8","Ilford","Greater London","London","England"
"1132","IG9","Loughton","Essex","East of England","England"
"1133","IM1","Douglas, Braddan","IOM","Crown Dependencies","Isle of Man"
"1134","IM2","Douglas, Braddan","IOM","Crown Dependencies","Isle of Man"
"1135","IM3","Onchan","IOM","Crown Dependencies","Isle of Man"
"1136","IM4","Peel, German","IOM","Crown Dependencies","Isle of Man"
"1137","IM5","Baldrine, Loman","IOM","Crown Dependencies","Isle of Man"
"1138","IM6","Kirk Michael","IOM","Crown Dependencies","Isle of Man"
"1139","IM7","St Judes, Andreas","IOM","Crown Dependencies","Isle of Man"
"1140","IM8","Ramsay","IOM","Crown Dependencies","Isle of Man"
"1141","IM9","Arbory","IOM","Crown Dependencies","Isle of Man"
"1142","IP1","Ipswich","Suffolk","East of England","England"
"1143","IP10","Levington","Suffolk","East of England","England"
"1144","IP11","Felixstowe","Suffolk","East of England","England"
"1145","IP12","Bromeswell","Suffolk","East of England","England"
"1146","IP13","Kettleburgh","Suffolk","East of England","England"
"1147","IP14","Stowupland","Suffolk","East of England","England"
"1148","IP15","Aldeburgh","Suffolk","East of England","England"
"1149","IP16","Leiston","Suffolk","East of England","England"
"1150","IP17","Kelsale","Suffolk","East of England","England"
"1151","IP18","Southwold","Suffolk","East of England","England"
"1152","IP19","Halesworth","Suffolk","East of England","England"
"1153","IP2","Ipswich","Suffolk","East of England","England"
"1154","IP20","Harleston","Norfolk","East of England","England"
"1155","IP21","Syleham","Suffolk","East of England","England"
"1156","IP22","Wortham","Suffolk","East of England","England"
"1157","IP23","Eye","Suffolk","East of England","England"
"1158","IP24","Thetford","Norfolk","East of England","England"
"1159","IP25","Ovington","Norfolk","East of England","England"
"1160","IP26","Methwold","Norfolk","East of England","England"
"1161","IP27","Brandon","Suffolk","East of England","England"
"1162","IP28","Tuddenham","Suffolk","East of England","England"
"1163","IP29","Whepstead","Suffolk","East of England","England"
"1164","IP3","Ipswich","Suffolk","East of England","England"
"1165","IP30","Hessett","Suffolk","East of England","England"
"1166","IP31","Pakenham","Suffolk","East of England","England"
"1167","IP32","Bury St Edmunds","Suffolk","East of England","England"
"1168","IP33","Bury St Edmunds","Suffolk","East of England","England"
"1169","IP4","Ipswich","Suffolk","East of England","England"
"1170","IP5","Kesgrave","Suffolk","East of England","England"
"1171","IP6","Hemingstone","Suffolk","East of England","England"
"1172","IP7","Aldham","Suffolk","East of England","England"
"1173","IP8","Sproughton","Suffolk","East of England","England"
"1174","IP9","Holbrook","Suffolk","East of England","England"
"1175","IV1","Inverness","Highland","Scotland","Scotland"
"1176","IV10","","Highland","Scotland","Scotland"
"1177","IV11","Cromarty","Highland","Scotland","Scotland"
"1178","IV12","Nairn","Highland","Scotland","Scotland"
"1179","IV13","","Highland","Scotland","Scotland"
"1180","IV14","Strathpeffer","Highland","Scotland","Scotland"
"1181","IV15","Dingwall","Highland","Scotland","Scotland"
"1182","IV16","Evanton","Highland","Scotland","Scotland"
"1183","IV17","Alness","Highland","Scotland","Scotland"
"1184","IV18","Invergordon","Highland","Scotland","Scotland"
"1185","IV19","Tain","Highland","Scotland","Scotland"
"1186","IV2","","Highland","Scotland","Scotland"
"1187","IV20","","Highland","Scotland","Scotland"
"1188","IV21","Gairloch","Highland","Scotland","Scotland"
"1189","IV22","","Highland","Scotland","Scotland"
"1190","IV23","","Highland","Scotland","Scotland"
"1191","IV24","","Highland","Scotland","Scotland"
"1192","IV25","","Highland","Scotland","Scotland"
"1193","IV26","","Highland","Scotland","Scotland"
"1194","IV27","","Highland","Scotland","Scotland"
"1195","IV28","Rogart","Highland","Scotland","Scotland"
"1196","IV3","Inverness","Highland","Scotland","Scotland"
"1197","IV30","Elgin","Moray","Scotland","Scotland"
"1198","IV31","Lossiemouth","Moray","Scotland","Scotland"
"1199","IV32","Mosstodloch","Moray","Scotland","Scotland"
"1200","IV36","Forres","Moray","Scotland","Scotland"
"1201","IV4","","Highland","Scotland","Scotland"
"1202","IV40","","Highland","Scotland","Scotland"
"1203","IV41","Kyleakin","Highland","Scotland","Scotland"
"1204","IV42","","Highland","Scotland","Scotland"
"1205","IV43","","Highland","Scotland","Scotland"
"1206","IV44","Saasaig","Highland","Scotland","Scotland"
"1207","IV45","","Highland","Scotland","Scotland"
"1208","IV46","Ferrindonald","Highland","Scotland","Scotland"
"1209","IV47","","Highland","Scotland","Scotland"
"1210","IV48","","Highland","Scotland","Scotland"
"1211","IV49","","Highland","Scotland","Scotland"
"1212","IV5","","Highland","Scotland","Scotland"
"1213","IV51","","Highland","Scotland","Scotland"
"1214","IV52","Plockton","Highland","Scotland","Scotland"
"1215","IV53","","Highland","Scotland","Scotland"
"1216","IV54","","Highland","Scotland","Scotland"
"1217","IV55","","Highland","Scotland","Scotland"
"1218","IV56","Isle of Skye","Highland","Scotland","Scotland"
"1219","IV6","Muir of Ord","Highland","Scotland","Scotland"
"1220","IV63","Lewiston","Highland","Scotland","Scotland"
"1221","IV7","","Highland","Scotland","Scotland"
"1222","IV8","","Highland","Scotland","Scotland"
"1223","IV9","Avoch","Highland","Scotland","Scotland"
"1224","JE1","St Helier","Jersey","Crown Dependencies","Jersey"
"1225","JE2","St Helier","Jersey","Crown Dependencies","Jersey"
"1226","JE3","St+F2813 Ouen","Jersey","Crown Dependencies","Jersey"
"1227","JE4","St Helier","Jersey","Crown Dependencies","Jersey"
"1228","KA1","Kilmarnock","East Ayrshire","Scotland","Scotland"
"1229","KA10","Troon","South Ayrshire","Scotland","Scotland"
"1230","KA11","Irvine","North Ayrshire","Scotland","Scotland"
"1231","KA12","Irvine","North Ayrshire","Scotland","Scotland"
"1232","KA13","Kilwinning","North Ayrshire","Scotland","Scotland"
"1233","KA14","Glengarnock","North Ayrshire","Scotland","Scotland"
"1234","KA15","Beith","North Ayrshire","Scotland","Scotland"
"1235","KA16","Newmilns","East Ayrshire","Scotland","Scotland"
"1236","KA17","Darvel","East Ayrshire","Scotland","Scotland"
"1237","KA18","Cumnock","East Ayrshire","Scotland","Scotland"
"1238","KA19","","South Ayrshire","Scotland","Scotland"
"1239","KA2","Gatehead","East Ayrshire","Scotland","Scotland"
"1240","KA20","Stevenston","North Ayrshire","Scotland","Scotland"
"1241","KA21","Ardrossan","North Ayrshire","Scotland","Scotland"
"1242","KA22","Ardrossan","North Ayrshire","Scotland","Scotland"
"1243","KA23","West Kilbride","North Ayrshire","Scotland","Scotland"
"1244","KA24","Dalry","North Ayrshire","Scotland","Scotland"
"1245","KA25","Kilbirnie","North Ayrshire","Scotland","Scotland"
"1246","KA26","","South Ayrshire","Scotland","Scotland"
"1247","KA27","","North Ayrshire","Scotland","Scotland"
"1248","KA28","Millport","North Ayrshire","Scotland","Scotland"
"1249","KA29","Fairlie","North Ayrshire","Scotland","Scotland"
"1250","KA3","","East Ayrshire","Scotland","Scotland"
"1251","KA30","Largs","North Ayrshire","Scotland","Scotland"
"1252","KA4","Galston","East Ayrshire","Scotland","Scotland"
"1253","KA5","Mauchline","East Ayrshire","Scotland","Scotland"
"1254","KA6","","South Ayrshire","Scotland","Scotland"
"1255","KA7","Ayr","South Ayrshire","Scotland","Scotland"
"1256","KA8","Ayr","South Ayrshire","Scotland","Scotland"
"1257","KA9","Ayr","South Ayrshire","Scotland","Scotland"
"1258","KT1","Kingston Upon Thames","Greater London","London","England"
"1259","KT10","Esher","Surrey","South East England","England"
"1260","KT11","Cobham","Surrey","South East England","England"
"1261","KT12","West Molesey","Surrey","South East England","England"
"1262","KT13","West Molesey","Surrey","South East England","England"
"1263","KT14","","Surrey","South East England","England"
"1264","KT15","Addlestone","Surrey","South East England","England"
"1265","KT16","","Surrey","South East England","England"
"1266","KT17","Epsom","Surrey","South East England","England"
"1267","KT18","","Surrey","South East England","England"
"1268","KT19","Epsom","Surrey","South East England","England"
"1269","KT2","Kingston Upon Thames","Greater London","London","England"
"1270","KT20","Reigate and Banstead","Surrey","South East England","England"
"1271","KT21","Leatherhead","Surrey","South East England","England"
"1272","KT22","Leatherhead","Surrey","South East England","England"
"1273","KT23","Dorking","Surrey","South East England","England"
"1274","KT24","East Horsley","Surrey","South East England","England"
"1275","KT3","Kingston Upon Thames","Greater London","London","England"
"1276","KT4","Sutton","Greater London","London","England"
"1277","KT5","Kingston Upon Thames","Greater London","London","England"
"1278","KT6","Kingston Upon Thames","Greater London","London","England"
"1279","KT7","Esher","Surrey","South East England","England"
"1280","KT8","West Molesey","Surrey","South East England","England"
"1281","KT9","Kingston Upon Thames","Greater London","London","England"
"1282","KW1","","Highland","Scotland","Scotland"
"1283","KW10","Golspie","Highland","Scotland","Scotland"
"1284","KW11","","Highland","Scotland","Scotland"
"1285","KW12","Halkirk","Highland","Scotland","Scotland"
"1286","KW13","","Highland","Scotland","Scotland"
"1287","KW14","Thurso","Highland","Scotland","Scotland"
"1288","KW15","Kirkwall","Orkney Islands","Scotland","Scotland"
"1289","KW16","Stromness","Orkney Islands","Scotland","Scotland"
"1290","KW17","Gorseness","Orkney Islands","Scotland","Scotland"
"1291","KW2","Whaligoe","Highland","Scotland","Scotland"
"1292","KW3","Lybster","Highland","Scotland","Scotland"
"1293","KW5","","Highland","Scotland","Scotland"
"1294","KW6","","Highland","Scotland","Scotland"
"1295","KW7","","Highland","Scotland","Scotland"
"1296","KW8","","Highland","Scotland","Scotland"
"1297","KW9","Brora","Highland","Scotland","Scotland"
"1298","KY1","Kirkcaldy","Fife","Scotland","Scotland"
"1299","KY10","","Fife","Scotland","Scotland"
"1300","KY11","","Fife","Scotland","Scotland"
"1301","KY12","Dunfermline","Fife","Scotland","Scotland"
"1302","KY13","Kinross","Perth and Kinross","Scotland","Scotland"
"1303","KY14","","Fife","Scotland","Scotland"
"1304","KY15","","Fife","Scotland","Scotland"
"1305","KY16","","Fife","Scotland","Scotland"
"1306","KY2","Kirkcaldy","Fife","Scotland","Scotland"
"1307","KY3","Burntisland","Fife","Scotland","Scotland"
"1308","KY4","","Fife","Scotland","Scotland"
"1309","KY5","","Fife","Scotland","Scotland"
"1310","KY6","Glenrothes","Fife","Scotland","Scotland"
"1311","KY7","Glenrothes","Fife","Scotland","Scotland"
"1312","KY8","Leven","Fife","Scotland","Scotland"
"1313","KY9","Kilconquhar","Fife","Scotland","Scotland"
"1314","L1","","Liverpool","North West England","England"
"1315","L10","Aintree","Sefton","North West England","England"
"1316","L11","","Liverpool","North West England","England"
"1317","L12","","Liverpool","North West England","England"
"1318","L13","","Liverpool","North West England","England"
"1319","L14","","Liverpool","North West England","England"
"1320","L15","","Liverpool","North West England","England"
"1321","L16","","Liverpool","North West England","England"
"1322","L17","","Liverpool","North West England","England"
"1323","L18","Garston","Liverpool","North West England","England"
"1324","L19","Garston","Liverpool","North West England","England"
"1325","L2","","Liverpool","North West England","England"
"1326","L20","Southport","Sefton","North West England","England"
"1327","L21","Southport","Sefton","North West England","England"
"1328","L22","Southport","Sefton","North West England","England"
"1329","L23","Crosby","Liverpool","North West England","England"
"1330","L24","Garston","Liverpool","North West England","England"
"1331","L25","Garston","Liverpool","North West England","England"
"1332","L26","Halewood","Knowsley","North West England","England"
"1333","L27","","Liverpool","North West England","England"
"1334","L28","","Knowsley","North West England","England"
"1335","L29","","Sefton","North West England","England"
"1336","L3","","Liverpool","North West England","England"
"1337","L30","Southport","Sefton","North West England","England"
"1338","L31","Maghull","Sefton","North West England","England"
"1339","L32","Kirkby","Knowsley","North West England","England"
"1340","L33","Kirkby","Knowsley","North West England","England"
"1341","L34","","Knowsley","North West England","England"
"1342","L35","Rainhill","St Helens","North West England","England"
"1343","L36","Hyton","Knowsley","North West England","England"
"1344","L37","Southport","Sefton","North West England","England"
"1345","L38","Southport","Sefton","North West England","England"
"1346","L39","Ormskirk","Lancashire","North West England","England"
"1347","L4","","Liverpool","North West England","England"
"1348","L40","Burscough","Lancashire","North West England","England"
"1349","L5","","Liverpool","North West England","England"
"1350","L6","","Liverpool","North West England","England"
"1351","L69","","Liverpool","North West England","England"
"1352","L7","","Liverpool","North West England","England"
"1353","L70","","Liverpool","North West England","England"
"1354","L8","","Liverpool","North West England","England"
"1355","L9","","Liverpool","North West England","England"
"1356","LA1","Lancaster","Lancashire","North West England","England"
"1357","LA10","Sedbergh","Cumbria","North West England","England"
"1358","LA11","Grange-over-Sands","Cumbria","North West England","England"
"1359","LA12","Ulverston","Cumbria","North West England","England"
"1360","LA13","Dalton-in-Furness","Cumbria","North West England","England"
"1361","LA14","Dalton-in-Furness","Cumbria","North West England","England"
"1362","LA15","Dalton Town with Newton","Cumbria","North West England","England"
"1363","LA16","Ireleth","Cumbria","North West England","England"
"1364","LA17","Kirkby Ireleth","Cumbria","North West England","England"
"1365","LA18","Millom","Cumbria","North West England","England"
"1366","LA19","Bootle","Cumbria","North West England","England"
"1367","LA2","Caton","Lancashire","North West England","England"
"1368","LA20","Broughton West","Cumbria","North West England","England"
"1369","LA21","Coniston","Cumbria","North West England","England"
"1370","LA22","Lakes","Cumbria","North West England","England"
"1371","LA23","Windermere","Cumbria","North West England","England"
"1372","LA3","Lancaster","Lancashire","North West England","England"
"1373","LA4","Lancaster","Lancashire","North West England","England"
"1374","LA5","Warton","Lancashire","North West England","England"
"1375","LA6","Whittingham","Lancashire","North West England","England"
"1376","LA7","Milnthorpe","Cumbria","North West England","England"
"1377","LA8","Kendal","Cumbria","North West England","England"
"1378","LA9","Kendal","Cumbria","North West England","England"
"1379","LD1","Llandrindod Wells","Powys","Wales","Wales"
"1380","LD2","Duhonw","Powys","Wales","Wales"
"1381","LD3","Llanddew","Powys","Wales","Wales"
"1382","LD4","Llangamarch","Powys","Wales","Wales"
"1383","LD5","Treflys","Powys","Wales","Wales"
"1384","LD6","Rhayader","Powys","Wales","Wales"
"1385","LD7","Knighton","Powys","Wales","Wales"
"1386","LD8","Presteigne","Powys","Wales","Wales"
"1387","LE1","Leicester","Leicester","East Midlands","England"
"1388","LE10","Hinckley","Leicestershire","East Midlands","England"
"1389","LE11","Loughborough","Leicestershire","East Midlands","England"
"1390","LE12","Loughborough","Leicestershire","East Midlands","England"
"1391","LE13","Melton Mowbray","Leicestershire","East Midlands","England"
"1392","LE14","Melton Mowbray","Leicestershire","East Midlands","England"
"1393","LE15","Hambleton","Rutland","East Midlands","England"
"1394","LE16","Dingley","Northamptonshire","East Midlands","England"
"1395","LE17","Gilmorton","Leicestershire","East Midlands","England"
"1396","LE18","Wigston","Leicestershire","East Midlands","England"
"1397","LE19","Narborough","Leicestershire","East Midlands","England"
"1398","LE2","Oadby","Leicester","East Midlands","England"
"1399","LE3","Leicester","Leicester","East Midlands","England"
"1400","LE4","Leicester","Leicester","East Midlands","England"
"1401","LE5","Leicester","Leicester","East Midlands","England"
"1402","LE6","Groby","Leicestershire","East Midlands","England"
"1403","LE65","Ashby-de-la-Zouch","Leicestershire","East Midlands","England"
"1404","LE67","Coalville","Leicestershire","East Midlands","England"
"1405","LE7","Barkby","Leicestershire","East Midlands","England"
"1406","LE8","Kilby","Leicestershire","East Midlands","England"
"1407","LE9","Hinckley","Leicestershire","East Midlands","England"
"1408","LL11","Broughton","Wrexham","Wales","Wales"
"1409","LL12","Gresford","Wrexham","Wales","Wales"
"1410","LL13","Abenbury","Wrexham","Wales","Wales"
"1411","LL14","Ruabon","Wrexham","Wales","Wales"
"1412","LL15","Ruthin","Denbighshire","Wales","Wales"
"1413","LL16","Denbigh","Denbighshire","Wales","Wales"
"1414","LL17","St Asaph","Denbighshire","Wales","Wales"
"1415","LL18","Rhyl","Denbighshire","Wales","Wales"
"1416","LL19","Prestatyn","Denbighshire","Wales","Wales"
"1417","LL20","Llangollen","Denbighshire","Wales","Wales"
"1418","LL21","Corwen","Denbighshire","Wales","Wales"
"1419","LL22","Betws-yn-Rhos","Conwy","Wales","Wales"
"1420","LL23","Bala","Gwynedd","Wales","Wales"
"1421","LL24","Bro Machno","Conwy","Wales","Wales"
"1422","LL25","Dolwyddelan","Conwy","Wales","Wales"
"1423","LL26","Llanrwst","Conwy","Wales","Wales"
"1424","LL27","Trefriw","Conwy","Wales","Wales"
"1425","LL28","Mochdre","Conwy","Wales","Wales"
"1426","LL29","Old Colwyn","Conwy","Wales","Wales"
"1427","LL30","Llandudno","Conwy","Wales","Wales"
"1428","LL31","Deganwy","Conwy","Wales","Wales"
"1429","LL32","Henryd","Conwy","Wales","Wales"
"1430","LL33","Llanfairfechan","Conwy","Wales","Wales"
"1431","LL34","Penmaenmawr","Conwy","Wales","Wales"
"1432","LL35","Aberdovey","Gwynedd","Wales","Wales"
"1433","LL36","Bryncrug","Gwynedd","Wales","Wales"
"1434","LL37","Llangelynin","Gwynedd","Wales","Wales"
"1435","LL38","Arthog","Gwynedd","Wales","Wales"
"1436","LL39","Arthog","Gwynedd","Wales","Wales"
"1437","LL40","Brithdir","Gwynedd","Wales","Wales"
"1438","LL41","Ffestiniog","Gwynedd","Wales","Wales"
"1439","LL42","Barmouth","Gwynedd","Wales","Wales"
"1440","LL43","Dyffryn Ardudwy","Gwynedd","Wales","Wales"
"1441","LL44","Dyffryn Ardudwy","Gwynedd","Wales","Wales"
"1442","LL45","Llanbedr","Gwynedd","Wales","Wales"
"1443","LL46","Harlech","Gwynedd","Wales","Wales"
"1444","LL47","Talsarnau","Gwynedd","Wales","Wales"
"1445","LL48","Penrhyndeudraeth","Gwynedd","Wales","Wales"
"1446","LL49","Porthmadog","Gwynedd","Wales","Wales"
"1447","LL51","Dolbenmaen","Gwynedd","Wales","Wales"
"1448","LL52","Criccieth","Gwynedd","Wales","Wales"
"1449","LL53","Buan","Gwynedd","Wales","Wales"
"1450","LL54","Llanllyfni","Gwynedd","Wales","Wales"
"1451","LL55","Llanrug","Gwynedd","Wales","Wales"
"1452","LL56","Y Felinheli","Gwynedd","Wales","Wales"
"1453","LL57","Llandygai","Gwynedd","Wales","Wales"
"1454","LL58","Beaumaris","Isle of Anglesey","Wales","Wales"
"1455","LL59","Cwm Cadnant","Isle of Anglesey","Wales","Wales"
"1456","LL60","Llanfihangel Ysgeifiog","Isle of Anglesey","Wales","Wales"
"1457","LL61","Llanidan","Isle of Anglesey","Wales","Wales"
"1458","LL62","Bodorgan","Isle of Anglesey","Wales","Wales"
"1459","LL63","Aberffraw","Isle of Anglesey","Wales","Wales"
"1460","LL64","Rhosneigr","Isle of Anglesey","Wales","Wales"
"1461","LL65","Valley","Isle of Anglesey","Wales","Wales"
"1462","LL66","Rhosybol","Isle of Anglesey","Wales","Wales"
"1463","LL67","Llanbadrig","Isle of Anglesey","Wales","Wales"
"1464","LL68","Amlwch","Isle of Anglesey","Wales","Wales"
"1465","LL69","Penysarn","Isle of Anglesey","Wales","Wales"
"1466","LL70","Moelfre","Isle of Anglesey","Wales","Wales"
"1467","LL71","Llannerch-Y-Medd","Isle of Anglesey","Wales","Wales"
"1468","LL72","Moelfre","Isle of Anglesey","Wales","Wales"
"1469","LL73","Llaneugrad","Isle of Anglesey","Wales","Wales"
"1470","LL74","Llanfair-Mathafarn-Eithaf","Isle of Anglesey","Wales","Wales"
"1471","LL75","Pentraeth","Isle of Anglesey","Wales","Wales"
"1472","LL76","Llanfair-Mathafarn-Eithaf","Isle of Anglesey","Wales","Wales"
"1473","LL77","Llangefni","Isle of Anglesey","Wales","Wales"
"1474","LL78","Llanfair-Mathafarn-Eithaf","Isle of Anglesey","Wales","Wales"
"1475","LN1","Burton","Lincolnshire","Yorkshire and the Humber","England"
"1476","LN10","Woodhall Spa","Lincolnshire","Yorkshire and the Humber","England"
"1477","LN11","Louth","Lincolnshire","Yorkshire and the Humber","England"
"1478","LN12","Mablethorpe","Lincolnshire","Yorkshire and the Humber","England"
"1479","LN13","Alford","Lincolnshire","Yorkshire and the Humber","England"
"1480","LN2","Nettleham","Lincolnshire","Yorkshire and the Humber","England"
"1481","LN3","Fiskerton","Lincolnshire","Yorkshire and the Humber","England"
"1482","LN4","Dunston","Lincolnshire","Yorkshire and the Humber","England"
"1483","LN5","Waddington","Lincolnshire","Yorkshire and the Humber","England"
"1484","LN6","Lincoln","Lincolnshire","Yorkshire and the Humber","England"
"1485","LN7","Caistor","Lincolnshire","Yorkshire and the Humber","England"
"1486","LN8","Linwood","Lincolnshire","Yorkshire and the Humber","England"
"1487","LN9","Horncastle","Lincolnshire","Yorkshire and the Humber","England"
"1488","LS1","","Leeds","Yorkshire and the Humber","England"
"1489","LS10","","Leeds","Yorkshire and the Humber","England"
"1490","LS11","","Leeds","Yorkshire and the Humber","England"
"1491","LS12","","Leeds","Yorkshire and the Humber","England"
"1492","LS13","","Leeds","Yorkshire and the Humber","England"
"1493","LS14","","Leeds","Yorkshire and the Humber","England"
"1494","LS15","","Leeds","Yorkshire and the Humber","England"
"1495","LS16","","Leeds","Yorkshire and the Humber","England"
"1496","LS17","Harewood","Leeds","Yorkshire and the Humber","England"
"1497","LS18","","Leeds","Yorkshire and the Humber","England"
"1498","LS19","Guiseley","Leeds","Yorkshire and the Humber","England"
"1499","LS2","","Leeds","Yorkshire and the Humber","England"
"1500","LS20","Guiseley","Leeds","Yorkshire and the Humber","England"
"1501","LS21","Otley","Leeds","Yorkshire and the Humber","England"
"1502","LS22","Wetherby","Leeds","Yorkshire and the Humber","England"
"1503","LS23","Boston Spa","Leeds","Yorkshire and the Humber","England"
"1504","LS24","Grimston","North Yorkshire","Yorkshire and the Humber","England"
"1505","LS25","Micklefield","Leeds","Yorkshire and the Humber","England"
"1506","LS26","Rothwell","Leeds","Yorkshire and the Humber","England"
"1507","LS27","Gildersome","Leeds","Yorkshire and the Humber","England"
"1508","LS28","","Leeds","Yorkshire and the Humber","England"
"1509","LS29","Ilkley","Bradford","Yorkshire and the Humber","England"
"1510","LS3","","Leeds","Yorkshire and the Humber","England"
"1511","LS4","","Leeds","Yorkshire and the Humber","England"
"1512","LS5","","Leeds","Yorkshire and the Humber","England"
"1513","LS6","","Leeds","Yorkshire and the Humber","England"
"1514","LS7","","Leeds","Yorkshire and the Humber","England"
"1515","LS8","","Leeds","Yorkshire and the Humber","England"
"1516","LS9","","Leeds","Yorkshire and the Humber","England"
"1517","LU1","","Luton","East of England","England"
"1518","LU2","","Luton","East of England","England"
"1519","LU3","","Luton","East of England","England"
"1520","LU4","","Luton","East of England","England"
"1521","LU5","Thorn","Central Bedfordshire","East of England","England"
"1522","LU6","Dunstable","Central Bedfordshire","East of England","England"
"1523","LU7","Leighton-Linslade","Central Bedfordshire","East of England","England"
"1524","M1","Manchester","Greater Manchester","North West England","England"
"1525","M11","Manchester","Greater Manchester","North West England","England"
"1526","M12","Manchester","Greater Manchester","North West England","England"
"1527","M13","Manchester","Greater Manchester","North West England","England"
"1528","M14","Manchester","Greater Manchester","North West England","England"
"1529","M15","Manchester","Greater Manchester","North West England","England"
"1530","M16","Manchester","Greater Manchester","North West England","England"
"1531","M17","Urmston","Trafford","North West England","England"
"1532","M18","Manchester","Greater Manchester","North West England","England"
"1533","M19","Manchester","Greater Manchester","North West England","England"
"1534","M2","Manchester","Greater Manchester","North West England","England"
"1535","M20","Manchester","Greater Manchester","North West England","England"
"1536","M21","Manchester","Greater Manchester","North West England","England"
"1537","M22","Manchester","Greater Manchester","North West England","England"
"1538","M23","Manchester","Greater Manchester","North West England","England"
"1539","M24","Middleton","Rochdale","North West England","England"
"1540","M25","","Bury","North West England","England"
"1541","M26","","Bury","North West England","England"
"1542","M27","","Salford","North West England","England"
"1543","M28","Walkden","Salford","North West England","England"
"1544","M29","Pemberton","Wigan","North West England","England"
"1545","M3","","Salford","North West England","England"
"1546","M30","","Salford","North West England","England"
"1547","M31","Partington","Trafford","North West England","England"
"1548","M32","Urmston","Trafford","North West England","England"
"1549","M33","","Trafford","North West England","England"
"1550","M34","Ashton-under-Lyne","Tameside","North West England","England"
"1551","M35","","Oldham","North West England","England"
"1552","M38","Walkden","Salford","North West England","England"
"1553","M4","Manchester","Greater Manchester","North West England","England"
"1554","M40","Manchester","Greater Manchester","North West England","England"
"1555","M41","Urmston","Trafford","North West England","England"
"1556","M43","Ashton-under-Lyne","Tameside","North West England","England"
"1557","M44","","Salford","North West England","England"
"1558","M45","","Bury","North West England","England"
"1559","M46","Pemberton","Wigan","North West England","England"
"1560","M5","","Salford","North West England","England"
"1561","M6","","Salford","North West England","England"
"1562","M60","Manchester","Greater Manchester","North West England","England"
"1563","M7","","Salford","North West England","England"
"1564","M8","Manchester","Greater Manchester","North West England","England"
"1565","M9","Manchester","Greater Manchester","North West England","England"
"1566","M90","Ringway","Greater Manchester","North West England","England"
"1567","ME1","Rochester","Medway","South East England","England"
"1568","ME10","Sittingbourne","Kent","South East England","England"
"1569","ME11","Queenborough","Kent","South East England","England"
"1570","ME12","Sittingbourne","Kent","South East England","England"
"1571","ME13","Faversham","Kent","South East England","England"
"1572","ME14","Maidstone","Kent","South East England","England"
"1573","ME15","Maidstone","Kent","South East England","England"
"1574","ME16","Maidstone","Kent","South East England","England"
"1575","ME17","Leeds","Kent","South East England","England"
"1576","ME18","West Farleigh","Kent","South East England","England"
"1577","ME19","West Malling","Kent","South East England","England"
"1578","ME2","Strood","Medway","South East England","England"
"1579","ME20","Ditton","Kent","South East England","England"
"1580","ME3","Hoo St Werburgh","Medway","South East England","England"
"1581","ME4","Rochester","Medway","South East England","England"
"1582","ME5","Rochester","Medway","South East England","England"
"1583","ME6","Snodland","Kent","South East England","England"
"1584","ME7","Gillingham","Medway","South East England","England"
"1585","ME8","Gillingham","Medway","South East England","England"
"1586","ME9","Sittingbourne","Kent","South East England","England"
"1587","MK1","Bletchley","Milton Keynes","South East England","England"
"1588","MK10","","Milton Keynes","South East England","England"
"1589","MK11","Stony Stratford","Milton Keynes","South East England","England"
"1590","MK12","Stony Stratford","Milton Keynes","South East England","England"
"1591","MK13","Bradwell","Milton Keynes","South East England","England"
"1592","MK14","Stantonbury","Milton Keynes","South East England","England"
"1593","MK15","Willen","Milton Keynes","South East England","England"
"1594","MK16","Newport Pagnell","Milton Keynes","South East England","England"
"1595","MK17","Bow Brickhill","Milton Keynes","South East England","England"
"1596","MK18","Buckingham","Buckinghamshire","South East England","England"
"1597","MK19","Cosgrove","Northamptonshire","East Midlands","England"
"1598","MK2","Bletchley","Milton Keynes","South East England","England"
"1599","MK3","Bletchley","Milton Keynes","South East England","England"
"1600","MK4","Shenley Brook End","Milton Keynes","South East England","England"
"1601","MK40","Bedford","Bedford Borough","East of England","England"
"1602","MK41","Bedford","Bedford Borough","East of England","England"
"1603","MK42","Kempston","Bedford Borough","East of England","England"
"1604","MK43","Kempston Rural","Bedford Borough","East of England","England"
"1605","MK44","Wilden","Bedford Borough","East of England","England"
"1606","MK45","Maulden","Central Bedfordshire","East of England","England"
"1607","MK46","Clifton Reynes","Milton Keynes","South East England","England"
"1608","MK5","Shenley Church End","Milton Keynes","South East England","England"
"1609","MK6","Woughton On The Green","Milton Keynes","South East England","England"
"1610","MK7","Walton","Milton Keynes","South East England","England"
"1611","MK8","Bradwell Abbey","Milton Keynes","South East England","England"
"1612","MK9","","Milton Keynes","South East England","England"
"1613","ML1","Motherwell","North Lanarkshire","Scotland","Scotland"
"1614","ML10","Strathaven","South Lanarkshire","Scotland","Scotland"
"1615","ML11","New Lanark","South Lanarkshire","Scotland","Scotland"
"1616","ML12","","South Lanarkshire","Scotland","Scotland"
"1617","ML2","Wishaw","North Lanarkshire","Scotland","Scotland"
"1618","ML3","Hamilton","South Lanarkshire","Scotland","Scotland"
"1619","ML4","Motherwell","North Lanarkshire","Scotland","Scotland"
"1620","ML5","Coatbridge","North Lanarkshire","Scotland","Scotland"
"1621","ML6","Airdrie","North Lanarkshire","Scotland","Scotland"
"1622","ML7","","North Lanarkshire","Scotland","Scotland"
"1623","ML8","Carluke","South Lanarkshire","Scotland","Scotland"
"1624","ML9","Larkhall","South Lanarkshire","Scotland","Scotland"
"1625","N1","Islington","Greater London","London","England"
"1626","N10","Tottenham","Greater London","London","England"
"1627","N11","Enfield","Greater London","London","England"
"1628","N12","Barnet","Greater London","London","England"
"1629","N13","Enfield","Greater London","London","England"
"1630","N14","Enfield","Greater London","London","England"
"1631","N15","Tottenham","Greater London","London","England"
"1632","N16","Hackney","Greater London","London","England"
"1633","N17","Tottenham","Greater London","London","England"
"1634","N18","Enfield","Greater London","London","England"
"1635","N19","Islington","Greater London","London","England"
"1636","N1C","King's Cross","Greater London","London","England"
"1637","N2","Barnet","Greater London","London","England"
"1638","N20","Barnet","Greater London","London","England"
"1639","N21","Enfield","Greater London","London","England"
"1640","N22","Tottenham","Greater London","London","England"
"1641","N3","Barnet","Greater London","London","England"
"1642","N4","Hackney","Greater London","London","England"
"1643","N5","Islington","Greater London","London","England"
"1644","N6","Tottenham","Greater London","London","England"
"1645","N7","Islington","Greater London","London","England"
"1646","N8","Tottenham","Greater London","London","England"
"1647","N9","Enfield","Greater London","London","England"
"1648","NE1","","Newcastle Upon Tyne","North East England","England"
"1649","NE10","","Gateshead","North East England","England"
"1650","NE11","Wickham and Dunston","Gateshead","North East England","England"
"1651","NE12","Longbenton","North Tyneside","North East England","England"
"1652","NE13","Brunswick","Newcastle Upon Tyne","North East England","England"
"1653","NE15","Newburn","Newcastle Upon Tyne","North East England","England"
"1654","NE16","Wickham and Dunston","Gateshead","North East England","England"
"1655","NE17","Blaydon","Gateshead","North East England","England"
"1656","NE18","Stamfordham","Northumberland","North East England","England"
"1657","NE19","Elsdon","Northumberland","North East England","England"
"1658","NE2","Byker","Newcastle Upon Tyne","North East England","England"
"1659","NE20","Ponteland","Northumberland","North East England","England"
"1660","NE21","Blaydon","Gateshead","North East England","England"
"1661","NE22","Wansbeck","Northumberland","North East England","England"
"1662","NE23","Blyth","Northumberland","North East England","England"
"1663","NE24","Blyth","Northumberland","North East England","England"
"1664","NE25","","North Tyneside","North East England","England"
"1665","NE26","","North Tyneside","North East England","England"
"1666","NE27","","North Tyneside","North East England","England"
"1667","NE28","","North Tyneside","North East England","England"
"1668","NE29","","North Tyneside","North East England","England"
"1669","NE3","","Newcastle Upon Tyne","North East England","England"
"1670","NE30","","North Tyneside","North East England","England"
"1671","NE31","","South Tyneside","North East England","England"
"1672","NE32","","South Tyneside","North East England","England"
"1673","NE33","","South Tyneside","North East England","England"
"1674","NE34","","South Tyneside","North East England","England"
"1675","NE35","","South Tyneside","North East England","England"
"1676","NE36","","South Tyneside","North East England","England"
"1677","NE37","Washington","Sunderland","North East England","England"
"1678","NE38","Washington","Sunderland","North East England","England"
"1679","NE39","Blaydon","Gateshead","North East England","England"
"1680","NE4","","Newcastle Upon Tyne","North East England","England"
"1681","NE40","Blaydon","Gateshead","North East England","England"
"1682","NE41","Wylam","Northumberland","North East England","England"
"1683","NE42","Prudhoe","Northumberland","North East England","England"
"1684","NE43","Stocksfield","Northumberland","North East England","England"
"1685","NE44","Broomhaugh and Riding","Northumberland","North East England","England"
"1686","NE45","Corbridge","Northumberland","North East England","England"
"1687","NE46","Hexham","Northumberland","North East England","England"
"1688","NE47","Allendale","Northumberland","North East England","England"
"1689","NE48","Bellingham","Northumberland","North East England","England"
"1690","NE49","Haltwhistle","Northumberland","North East England","England"
"1691","NE5","Newburn","Newcastle Upon Tyne","North East England","England"
"1692","NE6","Byker","Newcastle Upon Tyne","North East England","England"
"1693","NE61","Morpeth","Northumberland","North East England","England"
"1694","NE62","Wansbeck","Northumberland","North East England","England"
"1695","NE63","Wansbeck","Northumberland","North East England","England"
"1696","NE64","Wansbeck","Northumberland","North East England","England"
"1697","NE65","Newton on the Moor","Northumberland","North East England","England"
"1698","NE66","Denwick","Northumberland","North East England","England"
"1699","NE67","Ellingham","Northumberland","North East England","England"
"1700","NE68","North Sunderland","Northumberland","North East England","England"
"1701","NE69","Bamburgh","Northumberland","North East England","England"
"1702","NE7","Byker","Newcastle Upon Tyne","North East England","England"
"1703","NE70","Belford","Northumberland","North East England","England"
"1704","NE71","Akeld","Northumberland","North East England","England"
"1705","NE8","","Gateshead","North East England","England"
"1706","NE9","","Gateshead","North East England","England"
"1707","NE99","","Newcastle Upon Tyne","North East England","England"
"1708","NG1","","Nottingham","East Midlands","England"
"1709","NG10","Ilkeston","Derbyshire","East Midlands","England"
"1710","NG11","Clifton","Nottingham","East Midlands","England"
"1711","NG12","Cotgrave","Nottinghamshire","East Midlands","England"
"1712","NG13","Bingham","Nottinghamshire","East Midlands","England"
"1713","NG14","Lowdham","Nottinghamshire","East Midlands","England"
"1714","NG15","Sutton in Ashfield","Nottinghamshire","East Midlands","England"
"1715","NG16","Greasley","Nottinghamshire","East Midlands","England"
"1716","NG17","Sutton in Ashfield","Nottinghamshire","East Midlands","England"
"1717","NG18","Mansfield","Nottinghamshire","East Midlands","England"
"1718","NG19","Mansfield","Nottinghamshire","East Midlands","England"
"1719","NG2","West Bridgford","Nottinghamshire","East Midlands","England"
"1720","NG20","Warsop","Nottinghamshire","East Midlands","England"
"1721","NG21","Rainworth","Nottinghamshire","East Midlands","England"
"1722","NG22","Ompton","Nottinghamshire","East Midlands","England"
"1723","NG23","North Muskham","Nottinghamshire","East Midlands","England"
"1724","NG24","Newark-on-Trent","Nottinghamshire","East Midlands","England"
"1725","NG25","Southwell","Nottinghamshire","East Midlands","England"
"1726","NG3","","Nottingham","East Midlands","England"
"1727","NG31","Grantham","Lincolnshire","Yorkshire and the Humber","England"
"1728","NG32","Great Gonerby","Lincolnshire","Yorkshire and the Humber","England"
"1729","NG33","Burton Coggles","Lincolnshire","Yorkshire and the Humber","England"
"1730","NG34","Sleaford","Lincolnshire","Yorkshire and the Humber","England"
"1731","NG4","Carlton","Nottinghamshire","East Midlands","England"
"1732","NG5","","Nottingham","East Midlands","England"
"1733","NG6","","Nottingham","East Midlands","England"
"1734","NG7","","Nottingham","East Midlands","England"
"1735","NG8","","Nottingham","East Midlands","England"
"1736","NG9","Beeston","Nottinghamshire","East Midlands","England"
"1737","NN1","Northampton","Northamptonshire","East Midlands","England"
"1738","NN10","Rushden","Northamptonshire","East Midlands","England"
"1739","NN11","Badby","Northamptonshire","East Midlands","England"
"1740","NN12","Towcester","Northamptonshire","East Midlands","England"
"1741","NN13","Brackley","Northamptonshire","East Midlands","England"
"1742","NN14","Warkton","Northamptonshire","East Midlands","England"
"1743","NN15","Kettering","Northamptonshire","East Midlands","England"
"1744","NN16","Kettering","Northamptonshire","East Midlands","England"
"1745","NN17","Corby","Northamptonshire","East Midlands","England"
"1746","NN18","Corby","Northamptonshire","East Midlands","England"
"1747","NN2","Northampton","Northamptonshire","East Midlands","England"
"1748","NN29","Wollaston","Northamptonshire","East Midlands","England"
"1749","NN3","Northampton","Northamptonshire","East Midlands","England"
"1750","NN4","Northampton","Northamptonshire","East Midlands","England"
"1751","NN5","Duston","Northamptonshire","East Midlands","England"
"1752","NN6","Spratton","Northamptonshire","East Midlands","England"
"1753","NN7","Northampton","Northamptonshire","East Midlands","England"
"1754","NN8","Wellingborough","Northamptonshire","East Midlands","England"
"1755","NN9","Irthlingborough","Northamptonshire","East Midlands","England"
"1756","NP10","Graig","Newport","Wales","Wales"
"1757","NP11","Abercarn","Caerphilly","Wales","Wales"
"1758","NP12","Blackwood","Caerphilly","Wales","Wales"
"1759","NP13","Abertillery","Blaenau Gwent","Wales","Wales"
"1760","NP15","Gwehelog Fawr","Monmouthshire","Wales","Wales"
"1761","NP16","St Arvans","Monmouthshire","Wales","Wales"
"1762","NP18","Caerleon","Newport","Wales","Wales"
"1763","NP19","Alway","Newport","Wales","Wales"
"1764","NP20","Allt-yr-yn","Newport","Wales","Wales"
"1765","NP22","Tredegar","Blaenau Gwent","Wales","Wales"
"1766","NP23","Ebbw Vale","Blaenau Gwent","Wales","Wales"
"1767","NP24","New Tredegar","Caerphilly","Wales","Wales"
"1768","NP25","Monmouth","Monmouthshire","Wales","Wales"
"1769","NP26","Rogiet","Monmouthshire","Wales","Wales"
"1770","NP4","Trevethin","Torfaen","Wales","Wales"
"1771","NP44","Cwmbran","Torfaen","Wales","Wales"
"1772","NP7","Abergavenny","Monmouthshire","Wales","Wales"
"1773","NP8","Llangattock","Powys","Wales","Wales"
"1774","NR1","Norwich","Norfolk","East of England","England"
"1775","NR10","Hevingham","Norfolk","East of England","England"
"1776","NR11","Erpingham","Norfolk","East of England","England"
"1777","NR12","Smallburgh","Norfolk","East of England","England"
"1778","NR13","Blofield","Norfolk","East of England","England"
"1779","NR14","Alpington","Norfolk","East of England","England"
"1780","NR15","Hempnall","Norfolk","East of England","England"
"1781","NR16","Old Buckenham","Norfolk","East of England","England"
"1782","NR17","Attleborough","Norfolk","East of England","England"
"1783","NR18","Wymondham","Norfolk","East of England","England"
"1784","NR19","Scarning","Norfolk","East of England","England"
"1785","NR2","Norwich","Norfolk","East of England","England"
"1786","NR20","Swanton Morley","Norfolk","East of England","England"
"1787","NR21","Fakenham","Norfolk","East of England","England"
"1788","NR22","Walsingham","Norfolk","East of England","England"
"1789","NR23","Wells-next-the-Sea","Norfolk","East of England","England"
"1790","NR24","Briston","Norfolk","East of England","England"
"1791","NR25","Holt","Norfolk","East of England","England"
"1792","NR26","Sheringham","Norfolk","East of England","England"
"1793","NR27","Cromer","Norfolk","East of England","England"
"1794","NR28","North Walsham","Norfolk","East of England","England"
"1795","NR29","Great Yarmouth","Norfolk","East of England","England"
"1796","NR3","Norwich","Norfolk","East of England","England"
"1797","NR30","Great Yarmouth","Norfolk","East of England","England"
"1798","NR31","Great Yarmouth","Norfolk","East of England","England"
"1799","NR32","Oulton Broad","Suffolk","East of England","England"
"1800","NR33","Oulton Broad","Suffolk","East of England","England"
"1801","NR34","Weston","Suffolk","East of England","England"
"1802","NR35","Bungay","Suffolk","East of England","England"
"1803","NR4","Norwich","Norfolk","East of England","England"
"1804","NR5","Norwich","Norfolk","East of England","England"
"1805","NR6","Norwich","Norfolk","East of England","England"
"1806","NR7","Norwich","Norfolk","East of England","England"
"1807","NR8","Taverham","Norfolk","East of England","England"
"1808","NR9","Marlingford","Norfolk","East of England","England"
"1809","NW1","Camden Town","Greater London","London","England"
"1810","NW10","Brent","Greater London","London","England"
"1811","NW11","Barnet","Greater London","London","England"
"1812","NW2","Brent","Greater London","London","England"
"1813","NW3","Camden Town","Greater London","London","England"
"1814","NW4","Barnet","Greater London","London","England"
"1815","NW5","Camden Town","Greater London","London","England"
"1816","NW6","Camden Town","Greater London","London","England"
"1817","NW7","Barnet","Greater London","London","England"
"1818","NW8","Paddington","Greater London","London","England"
"1819","NW9","Brent","Greater London","London","England"
"1820","OL1","","Oldham","North West England","England"
"1821","OL10","Heywood","Rochdale","North West England","England"
"1822","OL11","","Rochdale","North West England","England"
"1823","OL12","","Rochdale","North West England","England"
"1824","OL13","Rawtenstall","Lancashire","North West England","England"
"1825","OL14","Todmorden","Calderdale","Yorkshire and the Humber","England"
"1826","OL15","","Rochdale","North West England","England"
"1827","OL16","","Rochdale","North West England","England"
"1828","OL2","Shaw","Oldham","North West England","England"
"1829","OL3","Saddleworth","Oldham","North West England","England"
"1830","OL4","","Oldham","North West England","England"
"1831","OL5","Mossley","Tameside","North West England","England"
"1832","OL6","Ashton-under-Lyne","Tameside","North West England","England"
"1833","OL7","Ashton-under-Lyne","Tameside","North West England","England"
"1834","OL8","","Oldham","North West England","England"
"1835","OL9","","Oldham","North West England","England"
"1836","OX1","Oxford","Oxfordshire","South East England","England"
"1837","OX10","Wallingford","Oxfordshire","South East England","England"
"1838","OX11","Didcot","Oxfordshire","South East England","England"
"1839","OX12","Wantage","Oxfordshire","South East England","England"
"1840","OX13","Marcham","Oxfordshire","South East England","England"
"1841","OX14","Culham","Oxfordshire","South East England","England"
"1842","OX15","Tadmarton","Oxfordshire","South East England","England"
"1843","OX16","Banbury","Oxfordshire","South East England","England"
"1844","OX17","Middleton Cheney","Northamptonshire","East Midlands","England"
"1845","OX18","Carterton","Oxfordshire","South East England","England"
"1846","OX2","Oxford","Oxfordshire","South East England","England"
"1847","OX20","Woodstock","Oxfordshire","South East England","England"
"1848","OX25","Chesterton","Oxfordshire","South East England","England"
"1849","OX26","Bicester","Oxfordshire","South East England","England"
"1850","OX27","Fringford","Oxfordshire","South East England","England"
"1851","OX28","Witney","Oxfordshire","South East England","England"
"1852","OX29","Eynsham","Oxfordshire","South East England","England"
"1853","OX3","Oxford","Oxfordshire","South East England","England"
"1854","OX33","Holton","Oxfordshire","South East England","England"
"1855","OX39","Chinnor","Oxfordshire","South East England","England"
"1856","OX4","Oxford","Oxfordshire","South East England","England"
"1857","OX44","Cuddesdon","Oxfordshire","South East England","England"
"1858","OX49","Watlington","Oxfordshire","South East England","England"
"1859","OX5","Kidlington","Oxfordshire","South East England","England"
"1860","OX6","Bicester","Oxfordshire","South East England","England"
"1861","OX7","Chadlington","Oxfordshire","South East England","England"
"1862","OX8","South Leigh","Oxfordshire","South East England","England"
"1863","OX9","Thame","Oxfordshire","South East England","England"
"1864","PA1","Paisley","Renfrewshire","Scotland","Scotland"
"1865","PA10","Kilbarchan","Renfrewshire","Scotland","Scotland"
"1866","PA11","Ranfurly","Renfrewshire","Scotland","Scotland"
"1867","PA12","Lochwinnoch","Renfrewshire","Scotland","Scotland"
"1868","PA13","Kilmacolm","Inverclyde","Scotland","Scotland"
"1869","PA14","Greenock","Inverclyde","Scotland","Scotland"
"1870","PA15","Greenock","Inverclyde","Scotland","Scotland"
"1871","PA16","Greenock","Inverclyde","Scotland","Scotland"
"1872","PA17","Skelmorlie","North Ayrshire","Scotland","Scotland"
"1873","PA18","Wemyss Bay","Inverclyde","Scotland","Scotland"
"1874","PA19","Greenock","Inverclyde","Scotland","Scotland"
"1875","PA2","Paisley","Renfrewshire","Scotland","Scotland"
"1876","PA20","Rothesay","Argyll and Bute","Scotland","Scotland"
"1877","PA21","Tighnabruaich","Argyll and Bute","Scotland","Scotland"
"1878","PA22","","Argyll and Bute","Scotland","Scotland"
"1879","PA23","Port Riddell","Argyll and Bute","Scotland","Scotland"
"1880","PA24","Lochgoilhead","Argyll and Bute","Scotland","Scotland"
"1881","PA25","","Argyll and Bute","Scotland","Scotland"
"1882","PA26","Cairndow","Argyll and Bute","Scotland","Scotland"
"1883","PA27","Strachur","Argyll and Bute","Scotland","Scotland"
"1884","PA28","","Argyll and Bute","Scotland","Scotland"
"1885","PA29","","Argyll and Bute","Scotland","Scotland"
"1886","PA3","Paisley","Renfrewshire","Scotland","Scotland"
"1887","PA30","Ardrishaig","Argyll and Bute","Scotland","Scotland"
"1888","PA31","","Argyll and Bute","Scotland","Scotland"
"1889","PA32","","Argyll and Bute","Scotland","Scotland"
"1890","PA33","","Argyll and Bute","Scotland","Scotland"
"1891","PA34","","Argyll and Bute","Scotland","Scotland"
"1892","PA35","","Argyll and Bute","Scotland","Scotland"
"1893","PA36","Bridge of Orchy","Argyll and Bute","Scotland","Scotland"
"1894","PA37","","Argyll and Bute","Scotland","Scotland"
"1895","PA38","","Argyll and Bute","Scotland","Scotland"
"1896","PA4","Renfrew","Renfrewshire","Scotland","Scotland"
"1897","PA41","","Argyll and Bute","Scotland","Scotland"
"1898","PA42","Port Ellen","Argyll and Bute","Scotland","Scotland"
"1899","PA43","Bowmore","Argyll and Bute","Scotland","Scotland"
"1900","PA44","Blackrock","Argyll and Bute","Scotland","Scotland"
"1901","PA45","Ballygrant","Argyll and Bute","Scotland","Scotland"
"1902","PA46","Port Askaig","Argyll and Bute","Scotland","Scotland"
"1903","PA47","Portnahaven","Argyll and Bute","Scotland","Scotland"
"1904","PA48","Port Charlotte","Argyll and Bute","Scotland","Scotland"
"1905","PA49","","Argyll and Bute","Scotland","Scotland"
"1906","PA5","Johnstone","Renfrewshire","Scotland","Scotland"
"1907","PA6","","Renfrewshire","Scotland","Scotland"
"1908","PA60","","Argyll and Bute","Scotland","Scotland"
"1909","PA61","Scalasaig","Argyll and Bute","Scotland","Scotland"
"1910","PA62","","Argyll and Bute","Scotland","Scotland"
"1911","PA63","","Argyll and Bute","Scotland","Scotland"
"1912","PA64","Lochdon","Argyll and Bute","Scotland","Scotland"
"1913","PA65","","Argyll and Bute","Scotland","Scotland"
"1914","PA66","","Argyll and Bute","Scotland","Scotland"
"1915","PA67","Bunessan","Argyll and Bute","Scotland","Scotland"
"1916","PA68","","Argyll and Bute","Scotland","Scotland"
"1917","PA69","","Argyll and Bute","Scotland","Scotland"
"1918","PA7","Bishopton","Renfrewshire","Scotland","Scotland"
"1919","PA70","","Argyll and Bute","Scotland","Scotland"
"1920","PA71","","Argyll and Bute","Scotland","Scotland"
"1921","PA72","","Argyll and Bute","Scotland","Scotland"
"1922","PA73","","Argyll and Bute","Scotland","Scotland"
"1923","PA74","","Argyll and Bute","Scotland","Scotland"
"1924","PA75","","Argyll and Bute","Scotland","Scotland"
"1925","PA76","","Argyll and Bute","Scotland","Scotland"
"1926","PA77","Crossapol","Argyll and Bute","Scotland","Scotland"
"1927","PA78","","Argyll and Bute","Scotland","Scotland"
"1928","PA8","","Renfrewshire","Scotland","Scotland"
"1929","PA9","Howwood","Renfrewshire","Scotland","Scotland"
"1930","PE1","","Peterborough","East of England","England"
"1931","PE10","Bourne","Lincolnshire","Yorkshire and the Humber","England"
"1932","PE11","Pinchbeck","Lincolnshire","Yorkshire and the Humber","England"
"1933","PE12","Fleet","Lincolnshire","Yorkshire and the Humber","England"
"1934","PE13","Wisbech","Cambridgeshire","East of England","England"
"1935","PE14","Emneth","Norfolk","East of England","England"
"1936","PE15","March","Cambridgeshire","East of England","England"
"1937","PE16","Chatteris","Cambridgeshire","East of England","England"
"1938","PE19","St Neots","Cambridgeshire","East of England","England"
"1939","PE2","","Peterborough","East of England","England"
"1940","PE20","Swineshead","Lincolnshire","Yorkshire and the Humber","England"
"1941","PE21","Boston","Lincolnshire","Yorkshire and the Humber","England"
"1942","PE22","Old Leake","Lincolnshire","Yorkshire and the Humber","England"
"1943","PE23","Spilsby","Lincolnshire","Yorkshire and the Humber","England"
"1944","PE24","Burgh Le Marsh","Lincolnshire","Yorkshire and the Humber","England"
"1945","PE25","Skegness","Lincolnshire","Yorkshire and the Humber","England"
"1946","PE26","Ramsey","Cambridgeshire","East of England","England"
"1947","PE27","St Ives","Cambridgeshire","East of England","England"
"1948","PE28","The Stukeleys","Cambridgeshire","East of England","England"
"1949","PE29","Huntingdon","Cambridgeshire","East of England","England"
"1950","PE3","","Peterborough","East of England","England"
"1951","PE30","King's Lynn","Norfolk","East of England","England"
"1952","PE31","Snettisham","Norfolk","East of England","England"
"1953","PE32","West Acre","Norfolk","East of England","England"
"1954","PE33","Shouldham","Norfolk","East of England","England"
"1955","PE34","Wiggenhall St Germans","Norfolk","East of England","England"
"1956","PE35","Sandringham","Norfolk","East of England","England"
"1957","PE36","Old Hunstanton","Norfolk","East of England","England"
"1958","PE37","Swaffham","Norfolk","East of England","England"
"1959","PE38","Denver","Norfolk","East of England","England"
"1960","PE4","","Peterborough","East of England","England"
"1961","PE5","Ailsworth","Peterborough","East of England","England"
"1962","PE6","Deeping St James","Lincolnshire","Yorkshire and the Humber","England"
"1963","PE7","Farcet","Cambridgeshire","East of England","England"
"1964","PE8","Tansor","Northamptonshire","East Midlands","England"
"1965","PE9","Stamford","Lincolnshire","Yorkshire and the Humber","England"
"1966","PH1","","Perth and Kinross","Scotland","Scotland"
"1967","PH10","","Perth and Kinross","Scotland","Scotland"
"1968","PH11","","Perth and Kinross","Scotland","Scotland"
"1969","PH12","","Perth and Kinross","Scotland","Scotland"
"1970","PH13","","Perth and Kinross","Scotland","Scotland"
"1971","PH14","","Perth and Kinross","Scotland","Scotland"
"1972","PH15","","Perth and Kinross","Scotland","Scotland"
"1973","PH16","","Perth and Kinross","Scotland","Scotland"
"1974","PH17","Killichonan","Perth and Kinross","Scotland","Scotland"
"1975","PH18","","Perth and Kinross","Scotland","Scotland"
"1976","PH19","Dalwhinnie","Highland","Scotland","Scotland"
"1977","PH2","","Perth and Kinross","Scotland","Scotland"
"1978","PH20","","Highland","Scotland","Scotland"
"1979","PH21","","Highland","Scotland","Scotland"
"1980","PH22","Aviemore","Highland","Scotland","Scotland"
"1981","PH23","","Highland","Scotland","Scotland"
"1982","PH24","Boat of Garten","Highland","Scotland","Scotland"
"1983","PH25","Nethy Bridge","Highland","Scotland","Scotland"
"1984","PH26","Grantown-on-Spey","Highland","Scotland","Scotland"
"1985","PH3","Auchterarder","Perth and Kinross","Scotland","Scotland"
"1986","PH30","","Highland","Scotland","Scotland"
"1987","PH31","","Highland","Scotland","Scotland"
"1988","PH32","Fort Augustus","Highland","Scotland","Scotland"
"1989","PH33","Fort William","Highland","Scotland","Scotland"
"1990","PH34","","Highland","Scotland","Scotland"
"1991","PH35","","Highland","Scotland","Scotland"
"1992","PH36","Kentra","Highland","Scotland","Scotland"
"1993","PH38","","Highland","Scotland","Scotland"
"1994","PH39","Arisaig","Highland","Scotland","Scotland"
"1995","PH4","Blackford","Perth and Kinross","Scotland","Scotland"
"1996","PH40","","Highland","Scotland","Scotland"
"1997","PH41","Mallaig","Highland","Scotland","Scotland"
"1998","PH42","Isle of Eigg","Highland","Scotland","Scotland"
"1999","PH43","Isle of Rum","Highland","Scotland","Scotland"
"2000","PH44","Isle of Canna","Highland","Scotland","Scotland"
"2001","PH49","Glencoe","Highland","Scotland","Scotland"
"2002","PH5","Muthill","Perth and Kinross","Scotland","Scotland"
"2003","PH50","Kinlochleven","Highland","Scotland","Scotland"
"2004","PH6","Comrie","Perth and Kinross","Scotland","Scotland"
"2005","PH7","Crieff","Perth and Kinross","Scotland","Scotland"
"2006","PH8","","Perth and Kinross","Scotland","Scotland"
"2007","PH9","","Perth and Kinross","Scotland","Scotland"
"2008","PL1","","Plymouth","South West England","England"
"2009","PL10","Rame","Cornwall","South West England","England"
"2010","PL11","Antony","Cornwall","South West England","England"
"2011","PL12","Saltash","Cornwall","South West England","England"
"2012","PL13","Looe","Cornwall","South West England","England"
"2013","PL14","Liskeard","Cornwall","South West England","England"
"2014","PL15","South Petherwin","Cornwall","South West England","England"
"2015","PL16","Lifton","Devon","South West England","England"
"2016","PL17","Callington","Cornwall","South West England","England"
"2017","PL18","Calstock","Cornwall","South West England","England"
"2018","PL19","Tavistock","Devon","South West England","England"
"2019","PL2","","Plymouth","South West England","England"
"2020","PL20","Horrabridge","Devon","South West England","England"
"2021","PL21","Ivybridge","Devon","South West England","England"
"2022","PL22","Lostwithiel","Cornwall","South West England","England"
"2023","PL23","Fowey","Cornwall","South West England","England"
"2024","PL24","St Blaise","Cornwall","South West England","England"
"2025","PL25","St Austell","Cornwall","South West England","England"
"2026","PL26","St Mewan","Cornwall","South West England","England"
"2027","PL27","St Breock","Cornwall","South West England","England"
"2028","PL28","Padstow","Cornwall","South West England","England"
"2029","PL29","St Endellion","Cornwall","South West England","England"
"2030","PL3","","Plymouth","South West England","England"
"2031","PL30","Helland","Cornwall","South West England","England"
"2032","PL31","Bodmin","Cornwall","South West England","England"
"2033","PL32","Camelford","Cornwall","South West England","England"
"2034","PL33","St Teath","Cornwall","South West England","England"
"2035","PL34","Tintagel","Cornwall","South West England","England"
"2036","PL35","Forrabury and Minster","Cornwall","South West England","England"
"2037","PL4","","Plymouth","South West England","England"
"2038","PL5","","Plymouth","South West England","England"
"2039","PL6","","Plymouth","South West England","England"
"2040","PL7","Plympton","Plymouth","South West England","England"
"2041","PL8","Yealmpton","Devon","South West England","England"
"2042","PL9","Plymstock","Plymouth","South West England","England"
"2043","PO1","","Portsmouth","South East England","England"
"2044","PO10","Hermitage","West Sussex","South East England","England"
"2045","PO11","South Hayling","Hampshire","South East England","England"
"2046","PO12","Gosport","Hampshire","South East England","England"
"2047","PO13","Gosport","Hampshire","South East England","England"
"2048","PO14","","Hampshire","South East England","England"
"2049","PO15","","Hampshire","South East England","England"
"2050","PO16","","Hampshire","South East England","England"
"2051","PO17","Wickham","Hampshire","South East England","England"
"2052","PO18","Funtington","West Sussex","South East England","England"
"2053","PO19","Chichester","West Sussex","South East England","England"
"2054","PO2","","Portsmouth","South East England","England"
"2055","PO20","Sidlesham","West Sussex","South East England","England"
"2056","PO21","Aldwick","West Sussex","South East England","England"
"2057","PO22","Felpham","West Sussex","South East England","England"
"2058","PO3","","Portsmouth","South East England","England"
"2059","PO30","Newport","Isle of Wight","South East England","England"
"2060","PO31","Cowes","Isle of Wight","South East England","England"
"2061","PO32","Newport","Isle of Wight","South East England","England"
"2062","PO33","Newport","Isle of Wight","South East England","England"
"2063","PO34","Nettlestone","Isle of Wight","South East England","England"
"2064","PO35","Bembridge","Isle of Wight","South East England","England"
"2065","PO36","Sandown","Isle of Wight","South East England","England"
"2066","PO37","Shanklin","Isle of Wight","South East England","England"
"2067","PO38","Ventnor","Isle of Wight","South East England","England"
"2068","PO39","Totland","Isle of Wight","South East England","England"
"2069","PO4","","Portsmouth","South East England","England"
"2070","PO40","Freshwater","Isle of Wight","South East England","England"
"2071","PO41","Yarmouth","Isle of Wight","South East England","England"
"2072","PO5","","Portsmouth","South East England","England"
"2073","PO6","","Portsmouth","South East England","England"
"2074","PO7","Southwick","Hampshire","South East England","England"
"2075","PO8","Horndean","Hampshire","South East England","England"
"2076","PO9","Havant","Hampshire","South East England","England"
"2077","PR1","Preston","Lancashire","North West England","England"
"2078","PR2","Preston","Lancashire","North West England","England"
"2079","PR25","Leyland","Lancashire","North West England","England"
"2080","PR26","Leyland","Lancashire","North West England","England"
"2081","PR3","Claughton","Lancashire","North West England","England"
"2082","PR4","Freckleton","Lancashire","North West England","England"
"2083","PR5","Bamber Bridge","Lancashire","North West England","England"
"2084","PR6","Chorley","Lancashire","North West England","England"
"2085","PR7","Chorley","Lancashire","North West England","England"
"2086","PR8","Southport","Sefton","North West England","England"
"2087","PR9","Southport","Sefton","North West England","England"
"2088","RG1","","Reading","South East England","England"
"2089","RG10","Twyford","Wokingham","South East England","England"
"2090","RG12","Bracknell","Bracknell Forest","South East England","England"
"2091","RG14","Newbury","West Berkshire","South East England","England"
"2092","RG17","Hungerford","West Berkshire","South East England","England"
"2093","RG18","Bucklebury","West Berkshire","South East England","England"
"2094","RG19","Thatcham","West Berkshire","South East England","England"
"2095","RG2","","Reading","South East England","England"
"2096","RG20","Newbury","West Berkshire","South East England","England"
"2097","RG21","Basingstoke","Hampshire","South East England","England"
"2098","RG22","Basingstoke","Hampshire","South East England","England"
"2099","RG23","Basingstoke","Hampshire","South East England","England"
"2100","RG24","Basingstoke","Hampshire","South East England","England"
"2101","RG25","Dummer","Hampshire","South East England","England"
"2102","RG26","Pamber","Hampshire","South East England","England"
"2103","RG27","Hook","Hampshire","South East England","England"
"2104","RG28","Whitchurch","Hampshire","South East England","England"
"2105","RG29","Odiham","Hampshire","South East England","England"
"2106","RG30","","Reading","South East England","England"
"2107","RG31","","Reading","South East England","England"
"2108","RG4","","Reading","South East England","England"
"2109","RG40","","Wokingham","South East England","England"
"2110","RG41","","Wokingham","South East England","England"
"2111","RG42","Warfield","Bracknell Forest","South East England","England"
"2112","RG45","Wokingham Without","Wokingham","South East England","England"
"2113","RG5","Woodley","Wokingham","South East England","England"
"2114","RG6","Earley","Wokingham","South East England","England"
"2115","RG7","Sulhamstead","West Berkshire","South East England","England"
"2116","RG8","Whitchurch-on-Thames","Oxfordshire","South East England","England"
"2117","RG9","Rotherfield Greys","Oxfordshire","South East England","England"
"2118","RH1","Reigate and Banstead","Surrey","South East England","England"
"2119","RH10","Crawley","West Sussex","South East England","England"
"2120","RH11","Crawley","West Sussex","South East England","England"
"2121","RH12","Horsham","West Sussex","South East England","England"
"2122","RH13","Southwater","West Sussex","South East England","England"
"2123","RH14","Wisborough Green","West Sussex","South East England","England"
"2124","RH15","Burgess Hill","West Sussex","South East England","England"
"2125","RH16","Haywards Heath","West Sussex","South East England","England"
"2126","RH17","Cuckfield Rural","West Sussex","South East England","England"
"2127","RH18","Forest Row","East Sussex","South East England","England"
"2128","RH19","East Grinstead","West Sussex","South East England","England"
"2129","RH2","Reigate and Banstead","Surrey","South East England","England"
"2130","RH20","Storrington","West Sussex","South East England","England"
"2131","RH3","Brockham","Surrey","South East England","England"
"2132","RH4","Dorking","Surrey","South East England","England"
"2133","RH5","Capel","Surrey","South East England","England"
"2134","RH6","Horley","Surrey","South East England","England"
"2135","RH7","Lingfield","Surrey","South East England","England"
"2136","RH8","Limpsfield","Surrey","South East England","England"
"2137","RH9","Godstone","Surrey","South East England","England"
"2138","RM1","Romford","Greater London","London","England"
"2139","RM10","Barking","Greater London","London","England"
"2140","RM11","Romford","Greater London","London","England"
"2141","RM12","Romford","Greater London","London","England"
"2142","RM13","Romford","Greater London","London","England"
"2143","RM14","Romford","Greater London","London","England"
"2144","RM15","","Thurrock","East of England","England"
"2145","RM16","","Thurrock","East of England","England"
"2146","RM17","","Thurrock","East of England","England"
"2147","RM18","","Thurrock","East of England","England"
"2148","RM19","","Thurrock","East of England","England"
"2149","RM2","Romford","Greater London","London","England"
"2150","RM20","","Thurrock","East of England","England"
"2151","RM3","Romford","Greater London","London","England"
"2152","RM4","Stapleford Abbotts","Essex","East of England","England"
"2153","RM5","Romford","Greater London","London","England"
"2154","RM6","Barking","Greater London","London","England"
"2155","RM7","Romford","Greater London","London","England"
"2156","RM8","Barking","Greater London","London","England"
"2157","RM9","Barking","Greater London","London","England"
"2158","S1","Norton","Sheffield","Yorkshire and the Humber","England"
"2159","S10","Norton","Sheffield","Yorkshire and the Humber","England"
"2160","S11","Norton","Sheffield","Yorkshire and the Humber","England"
"2161","S12","Norton","Sheffield","Yorkshire and the Humber","England"
"2162","S13","Norton","Sheffield","Yorkshire and the Humber","England"
"2163","S14","Norton","Sheffield","Yorkshire and the Humber","England"
"2164","S17","Norton","Sheffield","Yorkshire and the Humber","England"
"2165","S18","Dronfield","Derbyshire","East Midlands","England"
"2166","S2","Norton","Sheffield","Yorkshire and the Humber","England"
"2167","S20","Norton","Sheffield","Yorkshire and the Humber","England"
"2168","S21","Eckington","Derbyshire","East Midlands","England"
"2169","S25","Dinnington","Rotherham","Yorkshire and the Humber","England"
"2170","S26","Todwick","Rotherham","Yorkshire and the Humber","England"
"2171","S3","Norton","Sheffield","Yorkshire and the Humber","England"
"2172","S32","Grindleford","Derbyshire","East Midlands","England"
"2173","S33","Aston","Derbyshire","East Midlands","England"
"2174","S35","Ecclesfield","Sheffield","Yorkshire and the Humber","England"
"2175","S36","Hunshelf","Barnsley","Yorkshire and the Humber","England"
"2176","S4","Norton","Sheffield","Yorkshire and the Humber","England"
"2177","S40","Chesterfield","Derbyshire","East Midlands","England"
"2178","S41","Chesterfield","Derbyshire","East Midlands","England"
"2179","S42","Wingerworth","Derbyshire","East Midlands","England"
"2180","S43","Staveley","Derbyshire","East Midlands","England"
"2181","S44","Bolsover","Derbyshire","East Midlands","England"
"2182","S45","Clay Cross","Derbyshire","East Midlands","England"
"2183","S5","Norton","Sheffield","Yorkshire and the Humber","England"
"2184","S6","Norton","Sheffield","Yorkshire and the Humber","England"
"2185","S60","","Rotherham","Yorkshire and the Humber","England"
"2186","S61","","Rotherham","Yorkshire and the Humber","England"
"2187","S62","Rawmarsh","Rotherham","Yorkshire and the Humber","England"
"2188","S63","","Barnsley","Yorkshire and the Humber","England"
"2189","S64","","Rotherham","Yorkshire and the Humber","England"
"2190","S65","","Rotherham","Yorkshire and the Humber","England"
"2191","S66","Bramley","Rotherham","Yorkshire and the Humber","England"
"2192","S7","Norton","Sheffield","Yorkshire and the Humber","England"
"2193","S70","","Barnsley","Yorkshire and the Humber","England"
"2194","S71","","Barnsley","Yorkshire and the Humber","England"
"2195","S72","Brierley","Barnsley","Yorkshire and the Humber","England"
"2196","S73","Darfield","Barnsley","Yorkshire and the Humber","England"
"2197","S74","Hoyland","Barnsley","Yorkshire and the Humber","England"
"2198","S75","","Barnsley","Yorkshire and the Humber","England"
"2199","S8","Norton","Sheffield","Yorkshire and the Humber","England"
"2200","S80","Clumber and Hardwick","Nottinghamshire","East Midlands","England"
"2201","S81","Carlton in Lindrick","Nottinghamshire","East Midlands","England"
"2202","S9","Norton","Sheffield","Yorkshire and the Humber","England"
"2203","SA1","Landore","Swansea","Wales","Wales"
"2204","SA10","Blaenhonddan","Neath Port Talbot","Wales","Wales"
"2205","SA11","Tonna","Neath Port Talbot","Wales","Wales"
"2206","SA12","Baglan","Neath Port Talbot","Wales","Wales"
"2207","SA13","Bryn","Neath Port Talbot","Wales","Wales"
"2208","SA14","Llannon","Carmarthenshire","Wales","Wales"
"2209","SA15","Llanelli Rural","Carmarthenshire","Wales","Wales"
"2210","SA16","Cefn Sidan","Carmarthenshire","Wales","Wales"
"2211","SA17","Kidwelly","Carmarthenshire","Wales","Wales"
"2212","SA18","Betws","Carmarthenshire","Wales","Wales"
"2213","SA19","Talley","Carmarthenshire","Wales","Wales"
"2214","SA2","Sketty","Swansea","Wales","Wales"
"2215","SA20","Llandovery","Carmarthenshire","Wales","Wales"
"2216","SA3","Bishopston","Swansea","Wales","Wales"
"2217","SA31","Carmarthen","Carmarthenshire","Wales","Wales"
"2218","SA32","Llanegwad","Carmarthenshire","Wales","Wales"
"2219","SA33","Meidrim","Carmarthenshire","Wales","Wales"
"2220","SA34","Llanfallteg","Carmarthenshire","Wales","Wales"
"2221","SA35","Clydau","Pembrokeshire","Wales","Wales"
"2222","SA36","Crymych","Pembrokeshire","Wales","Wales"
"2223","SA37","Boncath","Pembrokeshire","Wales","Wales"
"2224","SA38","Newcastle Emlyn","Carmarthenshire","Wales","Wales"
"2225","SA39","Llanfihangel-Ar-Arth","Carmarthenshire","Wales","Wales"
"2226","SA4","Gorseinon","Swansea","Wales","Wales"
"2227","SA40","Llanwenog","Ceredigion","Wales","Wales"
"2228","SA41","Eglwyswrw","Pembrokeshire","Wales","Wales"
"2229","SA42","Newport","Pembrokeshire","Wales","Wales"
"2230","SA43","Llangoedmor","Ceredigion","Wales","Wales"
"2231","SA44","Troedyraur","Ceredigion","Wales","Wales"
"2232","SA45","New Quay","Ceredigion","Wales","Wales"
"2233","SA46","Aberaeron","Ceredigion","Wales","Wales"
"2234","SA47","Llanarth","Ceredigion","Wales","Wales"
"2235","SA48","Llangybi","Ceredigion","Wales","Wales"
"2236","SA5","Penderry","Swansea","Wales","Wales"
"2237","SA6","Morriston","Swansea","Wales","Wales"
"2238","SA61","Haverfordwest","Pembrokeshire","Wales","Wales"
"2239","SA62","Nolton","Pembrokeshire","Wales","Wales"
"2240","SA63","Wiston","Pembrokeshire","Wales","Wales"
"2241","SA64","Pencaer","Pembrokeshire","Wales","Wales"
"2242","SA65","Fishguard","Pembrokeshire","Wales","Wales"
"2243","SA66","Maenclochog","Pembrokeshire","Wales","Wales"
"2244","SA67","Narberth","Pembrokeshire","Wales","Wales"
"2245","SA68","Jeffreyston","Pembrokeshire","Wales","Wales"
"2246","SA69","Saundersfoot","Pembrokeshire","Wales","Wales"
"2247","SA7","Llansamlet","Swansea","Wales","Wales"
"2248","SA70","Penally","Pembrokeshire","Wales","Wales"
"2249","SA71","Pembroke","Pembrokeshire","Wales","Wales"
"2250","SA72","Pembroke Dock","Pembrokeshire","Wales","Wales"
"2251","SA73","Milford Haven","Pembrokeshire","Wales","Wales"
"2252","SA8","Pontardawe","Neath Port Talbot","Wales","Wales"
"2253","SA9","Ystradgynlais","Powys","Wales","Wales"
"2254","SE1","Camberwell","Greater London","London","England"
"2255","SE10","Greenwich","Greater London","London","England"
"2256","SE11","Lambeth","Greater London","London","England"
"2257","SE12","Greenwich","Greater London","London","England"
"2258","SE13","Lewisham","Greater London","London","England"
"2259","SE14","Lewisham","Greater London","London","England"
"2260","SE15","Camberwell","Greater London","London","England"
"2261","SE16","Camberwell","Greater London","London","England"
"2262","SE17","Camberwell","Greater London","London","England"
"2263","SE18","Eltham","Greater London","London","England"
"2264","SE19","Croydon","Greater London","London","England"
"2265","SE2","Eltham","Greater London","London","England"
"2266","SE20","Bromley","Greater London","London","England"
"2267","SE21","Camberwell","Greater London","London","England"
"2268","SE22","Camberwell","Greater London","London","England"
"2269","SE23","Lewisham","Greater London","London","England"
"2270","SE24","Camberwell","Greater London","London","England"
"2271","SE25","Croydon","Greater London","London","England"
"2272","SE26","Lewisham","Greater London","London","England"
"2273","SE27","Lambeth","Greater London","London","England"
"2274","SE28","Eltham","Greater London","London","England"
"2275","SE3","Greenwich","Greater London","London","England"
"2276","SE4","Lewisham","Greater London","London","England"
"2277","SE5","Camberwell","Greater London","London","England"
"2278","SE6","Lewisham","Greater London","London","England"
"2279","SE7","Greenwich","Greater London","London","England"
"2280","SE8","Lewisham","Greater London","London","England"
"2281","SE9","Eltham","Greater London","London","England"
"2282","SG1","Stevenage","Hertfordshire","East of England","England"
"2283","SG10","Much Hadham","Hertfordshire","East of England","England"
"2284","SG11","Standon","Hertfordshire","East of England","England"
"2285","SG12","Ware","Hertfordshire","East of England","England"
"2286","SG13","Hertford","Hertfordshire","East of England","England"
"2287","SG14","Hertford","Hertfordshire","East of England","England"
"2288","SG15","Arlesey","Central Bedfordshire","East of England","England"
"2289","SG16","Henlow","Central Bedfordshire","East of England","England"
"2290","SG17","Shefford","Central Bedfordshire","East of England","England"
"2291","SG18","Biggleswade","Central Bedfordshire","East of England","England"
"2292","SG19","Everton","Central Bedfordshire","East of England","England"
"2293","SG2","Stevenage","Hertfordshire","East of England","England"
"2294","SG3","Knebworth","Hertfordshire","East of England","England"
"2295","SG4","Ippollitts","Hertfordshire","East of England","England"
"2296","SG5","Ickleford","Hertfordshire","East of England","England"
"2297","SG6","Hitchin","Hertfordshire","East of England","England"
"2298","SG7","Bygrave","Hertfordshire","East of England","England"
"2299","SG8","Melbourn","Cambridgeshire","East of England","England"
"2300","SG9","Buntingford","Hertfordshire","East of England","England"
"2301","SK1","","Stockport","North West England","England"
"2302","SK10","Macclesfield","Cheshire East","North West England","England"
"2303","SK11","Macclesfield","Cheshire East","North West England","England"
"2304","SK12","Poynton","Cheshire East","North West England","England"
"2305","SK13","Glossop","Derbyshire","East Midlands","England"
"2306","SK14","Ashton-under-Lyne","Tameside","North West England","England"
"2307","SK15","","Tameside","North West England","England"
"2308","SK16","Ashton-under-Lyne","Tameside","North West England","England"
"2309","SK17","King Sterndale","Derbyshire","East Midlands","England"
"2310","SK2","","Stockport","North West England","England"
"2311","SK22","New Mills","Derbyshire","East Midlands","England"
"2312","SK23","Chapel-en-le-Frith","Derbyshire","East Midlands","England"
"2313","SK3","","Stockport","North West England","England"
"2314","SK4","","Stockport","North West England","England"
"2315","SK5","","Stockport","North West England","England"
"2316","SK6","","Stockport","North West England","England"
"2317","SK7","Cheadle","Stockport","North West England","England"
"2318","SK8","","Stockport","North West England","England"
"2319","SK9","Macclesfield","Cheshire East","North West England","England"
"2320","SL0","Iver","Buckinghamshire","South East England","England"
"2321","SL1","Colnbrook with Poyle","Slough","South East England","England"
"2322","SL2","Colnbrook with Poyle","Slough","South East England","England"
"2323","SL3","Colnbrook with Poyle","Slough","South East England","England"
"2324","SL4","Windsor","Windsor and Maidenhead","South East England","England"
"2325","SL5","Sunninghill","Windsor and Maidenhead","South East England","England"
"2326","SL6","Maidenhead","Windsor and Maidenhead","South East England","England"
"2327","SL7","Marlow","Buckinghamshire","South East England","England"
"2328","SL8","Wooburn","Buckinghamshire","South East England","England"
"2329","SL9","Chalfont St Peter","Buckinghamshire","South East England","England"
"2330","SM1","Sutton","Greater London","London","England"
"2331","SM2","Sutton","Greater London","London","England"
"2332","SM3","Sutton","Greater London","London","England"
"2333","SM4","Merton","Greater London","London","England"
"2334","SM5","Sutton","Greater London","London","England"
"2335","SM6","Sutton","Greater London","London","England"
"2336","SM7","Reigate and Banstead","Surrey","South East England","England"
"2337","SN1","","Swindon","South West England","England"
"2338","SN10","Roundway","Wiltshire","South West England","England"
"2339","SN11","Calne","Wiltshire","South West England","England"
"2340","SN12","Melksham","Wiltshire","South West England","England"
"2341","SN13","Corsham","Wiltshire","South West England","England"
"2342","SN14","Yatton Keynell","Wiltshire","South West England","England"
"2343","SN15","Bremhill","Wiltshire","South West England","England"
"2344","SN16","Malmesbury","Wiltshire","South West England","England"
"2345","SN2","","Swindon","South West England","England"
"2346","SN25","Haydon Wick","Swindon","South West England","England"
"2347","SN26","Blunsdon St Andrew","Swindon","South West England","England"
"2348","SN3","","Swindon","South West England","England"
"2349","SN4","Wroughton","Swindon","South West England","England"
"2350","SN5","","Swindon","South West England","England"
"2351","SN6","Stanton Fitzwarren","Swindon","South West England","England"
"2352","SN7","Shellingford","Oxfordshire","South East England","England"
"2353","SN8","Savernake","Wiltshire","South West England","England"
"2354","SN9","Manningford","Wiltshire","South West England","England"
"2355","SO14","","Southampton","South East England","England"
"2356","SO15","","Southampton","South East England","England"
"2357","SO16","","Southampton","South East England","England"
"2358","SO17","","Southampton","South East England","England"
"2359","SO18","","Southampton","South East England","England"
"2360","SO19","","Southampton","South East England","England"
"2361","SO20","Longstock","Hampshire","South East England","England"
"2362","SO21","Winchester","Hampshire","South East England","England"
"2363","SO22","Winchester","Hampshire","South East England","England"
"2364","SO23","Winchester","Hampshire","South East England","England"
"2365","SO24","Bishops Sutton","Hampshire","South East England","England"
"2366","SO30","Hedge End","Hampshire","South East England","England"
"2367","SO31","Locks Heath","Hampshire","South East England","England"
"2368","SO32","Bishops Waltham","Hampshire","South East England","England"
"2369","SO40","Totton","Hampshire","South East England","England"
"2370","SO41","Lymington","Hampshire","South East England","England"
"2371","SO42","Denny Lodge","Hampshire","South East England","England"
"2372","SO43","Lyndhurst","Hampshire","South East England","England"
"2373","SO45","Hythe","Hampshire","South East England","England"
"2374","SO50","Eastleigh","Hampshire","South East England","England"
"2375","SO51","Romsey","Hampshire","South East England","England"
"2376","SO52","North Baddesley","Hampshire","South East England","England"
"2377","SO53","Eastleigh","Hampshire","South East England","England"
"2378","SP1","Salisbury","Wiltshire","South West England","England"
"2379","SP10","Andover","Hampshire","South East England","England"
"2380","SP11","Charlton","Hampshire","South East England","England"
"2381","SP2","Salisbury","Wiltshire","South West England","England"
"2382","SP3","Dinton","Wiltshire","South West England","England"
"2383","SP4","Amesbury","Wiltshire","South West England","England"
"2384","SP5","Downton","Wiltshire","South West England","England"
"2385","SP6","Fordingbridge","Hampshire","South East England","England"
"2386","SP7","Shaftesbury","Dorset","South West England","England"
"2387","SP8","Gillingham","Dorset","South West England","England"
"2388","SP9","South Tidworth","Hampshire","South East England","England"
"2389","SR1","","Sunderland","North East England","England"
"2390","SR2","","Sunderland","North East England","England"
"2391","SR3","Houghton-le-Spring","Sunderland","North East England","England"
"2392","SR4","Houghton-le-Spring","Sunderland","North East England","England"
"2393","SR5","Castletown","Sunderland","North East England","England"
"2394","SR6","","Sunderland","North East England","England"
"2395","SR7","Dalton-le-Dale","County Durham","North East England","England"
"2396","SR8","Peterlee","County Durham","North East England","England"
"2397","SR9","","Sunderland","North East England","England"
"2398","SS0","","Southend-on-Sea","East of England","England"
"2399","SS1","","Southend-on-Sea","East of England","England"
"2400","SS11","Wickford","Essex","East of England","England"
"2401","SS12","Wickford","Essex","East of England","England"
"2402","SS13","Basildon","Essex","East of England","England"
"2403","SS14","Basildon","Essex","East of England","England"
"2404","SS15","Basildon","Essex","East of England","England"
"2405","SS16","Basildon","Essex","East of England","England"
"2406","SS17","Corringham","Thurrock","East of England","England"
"2407","SS2","","Southend-on-Sea","East of England","England"
"2408","SS3","","Southend-on-Sea","East of England","England"
"2409","SS4","Rochford","Essex","East of England","England"
"2410","SS5","Hockley","Essex","East of England","England"
"2411","SS6","Rayleigh","Essex","East of England","England"
"2412","SS7","Canvey Island","Essex","East of England","England"
"2413","SS8","Canvey Island","Essex","East of England","England"
"2414","SS9","","Southend-on-Sea","East of England","England"
"2415","ST1","","Stoke-on-Trent","West Midlands","England"
"2416","ST10","Cheadle","Staffordshire","West Midlands","England"
"2417","ST11","Forsbrook","Staffordshire","West Midlands","England"
"2418","ST12","Barlaston","Staffordshire","West Midlands","England"
"2419","ST13","Leek","Staffordshire","West Midlands","England"
"2420","ST14","Uttoxeter","Staffordshire","West Midlands","England"
"2421","ST15","Stone","Staffordshire","West Midlands","England"
"2422","ST16","Stafford","Staffordshire","West Midlands","England"
"2423","ST17","Stafford","Staffordshire","West Midlands","England"
"2424","ST18","Hopton","Staffordshire","West Midlands","England"
"2425","ST19","Penkridge","Staffordshire","West Midlands","England"
"2426","ST2","","Stoke-on-Trent","West Midlands","England"
"2427","ST20","Gnosall","Staffordshire","West Midlands","England"
"2428","ST21","Eccleshall","Staffordshire","West Midlands","England"
"2429","ST3","","Stoke-on-Trent","West Midlands","England"
"2430","ST4","","Stoke-on-Trent","West Midlands","England"
"2431","ST5","Newcastle-under-Lyme","Staffordshire","West Midlands","England"
"2432","ST6","","Stoke-on-Trent","West Midlands","England"
"2433","ST7","Kidsgrove","Staffordshire","West Midlands","England"
"2434","ST8","Biddulph","Staffordshire","West Midlands","England"
"2435","ST9","Bagnall","Staffordshire","West Midlands","England"
"2436","SW1","","Westminster","London","England"
"2437","SW10","Kensington","Greater London","London","England"
"2438","SW11","Wandsworth","Greater London","London","England"
"2439","SW12","Wandsworth","Greater London","London","England"
"2440","SW13","Richmond","Greater London","London","England"
"2441","SW14","Richmond","Greater London","London","England"
"2442","SW15","Wandsworth","Greater London","London","England"
"2443","SW16","Lambeth","Greater London","London","England"
"2444","SW17","Wandsworth","Greater London","London","England"
"2445","SW18","Wandsworth","Greater London","London","England"
"2446","SW19","Merton","Greater London","London","England"
"2447","SW1A","","Westminster","London","England"
"2448","SW1E","","Westminster","London","England"
"2449","SW1H","","Westminster","London","England"
"2450","SW1P","","Westminster","London","England"
"2451","SW1V","","Westminster","London","England"
"2452","SW1W","","Westminster","London","England"
"2453","SW1X","","Westminster","London","England"
"2454","SW1Y","","Westminster","London","England"
"2455","SW2","Lambeth","Greater London","London","England"
"2456","SW20","Merton","Greater London","London","England"
"2457","SW3","Kensington","Greater London","London","England"
"2458","SW4","Lambeth","Greater London","London","England"
"2459","SW5","Kensington","Greater London","London","England"
"2460","SW6","Hammersmith","Greater London","London","England"
"2461","SW7","Kensington","Greater London","London","England"
"2462","SW8","Lambeth","Greater London","London","England"
"2463","SW9","Lambeth","Greater London","London","England"
"2464","SY1","Shrewsbury","Shropshire","West Midlands","England"
"2465","SY10","Oswestry Rural","Shropshire","West Midlands","England"
"2466","SY11","Oswestry","Shropshire","West Midlands","England"
"2467","SY12","Ellesmere","Shropshire","West Midlands","England"
"2468","SY13","Whitchurch Rural","Shropshire","West Midlands","England"
"2469","SY14","Malpas","Cheshire West and Chester","North West England","England"
"2470","SY15","Montgomery","Powys","Wales","Wales"
"2471","SY16","Llanllwchaiarn","Powys","Wales","Wales"
"2472","SY17","Caersws","Powys","Wales","Wales"
"2473","SY18","Llanidloes","Powys","Wales","Wales"
"2474","SY19","Llanbrynmair","Powys","Wales","Wales"
"2475","SY2","Shrewsbury","Shropshire","West Midlands","England"
"2476","SY20","Glantwymyn","Powys","Wales","Wales"
"2477","SY21","Castle Caereinion","Powys","Wales","Wales"
"2478","SY22","Llansantffraid","Powys","Wales","Wales"
"2479","SY23","Llanfarian","Ceredigion","Wales","Wales"
"2480","SY24","Geneur Glyn","Ceredigion","Wales","Wales"
"2481","SY25","Tregaron","Ceredigion","Wales","Wales"
"2482","SY3","Shrewsbury","Shropshire","West Midlands","England"
"2483","SY4","Myddle","Shropshire","West Midlands","England"
"2484","SY5","Longden","Shropshire","West Midlands","England"
"2485","SY6","Church Stretton","Shropshire","West Midlands","England"
"2486","SY7","Hopesay","Shropshire","West Midlands","England"
"2487","SY8","Ludlow","Shropshire","West Midlands","England"
"2488","SY9","Lydham","Shropshire","West Midlands","England"
"2489","TA1","Taunton","Somerset","South West England","England"
"2490","TA10","Langport","Somerset","South West England","England"
"2491","TA11","Somerton","Somerset","South West England","England"
"2492","TA12","Martock","Somerset","South West England","England"
"2493","TA13","South Petherton","Somerset","South West England","England"
"2494","TA14","Norton Sub Hamdon","Somerset","South West England","England"
"2495","TA15","Montacute","Somerset","South West England","England"
"2496","TA16","Merriott","Somerset","South West England","England"
"2497","TA17","Hinton St George","Somerset","South West England","England"
"2498","TA18","Crewkerne","Somerset","South West England","England"
"2499","TA19","Ilminster","Somerset","South West England","England"
"2500","TA2","Staplegrove","Somerset","South West England","England"
"2501","TA20","Chard","Somerset","South West England","England"
"2502","TA21","Wellington","Somerset","South West England","England"
"2503","TA22","Dulverton","Somerset","South West England","England"
"2504","TA23","Williton","Somerset","South West England","England"
"2505","TA24","Wootton Courtenay","Somerset","South West England","England"
"2506","TA3","Stoke St Mary","Somerset","South West England","England"
"2507","TA4","Lydeard St Lawrence","Somerset","South West England","England"
"2508","TA5","Spaxton","Somerset","South West England","England"
"2509","TA6","Bridgwater","Somerset","South West England","England"
"2510","TA7","Stawell","Somerset","South West England","England"
"2511","TA8","Burnham-on-Sea","Somerset","South West England","England"
"2512","TA9","Burnham Without","Somerset","South West England","England"
"2513","TD1","Galashiels","The Scottish Borders","Scotland","Scotland"
"2514","TD10","Greenlaw","The Scottish Borders","Scotland","Scotland"
"2515","TD11","","The Scottish Borders","Scotland","Scotland"
"2516","TD12","Cornhill-on-Tweed","Northumberland","North East England","Scotland"
"2517","TD13","Cockburnspath","The Scottish Borders","Scotland","Scotland"
"2518","TD14","","The Scottish Borders","Scotland","Scotland"
"2519","TD15","Berwick-upon-Tweed","Northumberland","North East England","Scotland"
"2520","TD2","","The Scottish Borders","Scotland","Scotland"
"2521","TD3","","The Scottish Borders","Scotland","Scotland"
"2522","TD4","Earlston","The Scottish Borders","Scotland","Scotland"
"2523","TD5","","The Scottish Borders","Scotland","Scotland"
"2524","TD6","Newtown St Boswells","The Scottish Borders","Scotland","Scotland"
"2525","TD7","","The Scottish Borders","Scotland","Scotland"
"2526","TD8","Jedburgh","The Scottish Borders","Scotland","Scotland"
"2527","TD9","","The Scottish Borders","Scotland","Scotland"
"2528","TF1","Wellington","Telford and Wrekin","West Midlands","England"
"2529","TF10","Newport","Telford and Wrekin","West Midlands","England"
"2530","TF11","Shifnal","Shropshire","West Midlands","England"
"2531","TF12","Broseley","Shropshire","West Midlands","England"
"2532","TF13","Much Wenlock","Shropshire","West Midlands","England"
"2533","TF2","St Georges and Priorslee","Telford and Wrekin","West Midlands","England"
"2534","TF3","Hollinswood","Telford and Wrekin","West Midlands","England"
"2535","TF4","Telford","Telford and Wrekin","West Midlands","England"
"2536","TF5","Wellington","Telford and Wrekin","West Midlands","England"
"2537","TF6","Rodington","Telford and Wrekin","West Midlands","England"
"2538","TF7","Madeley","Telford and Wrekin","West Midlands","England"
"2539","TF8","The Gorge","Telford and Wrekin","West Midlands","England"
"2540","TF9","Sutton upon Tern","Shropshire","West Midlands","England"
"2541","TN1","Royal Tunbridge Wells","Kent","South East England","England"
"2542","TN10","Tonbridge","Kent","South East England","England"
"2543","TN11","Tonbridge","Kent","South East England","England"
"2544","TN12","Yalding","Kent","South East England","England"
"2545","TN13","Sevenoaks","Kent","South East England","England"
"2546","TN14","Dunton Green","Kent","South East England","England"
"2547","TN15","Wrotham","Kent","South East England","England"
"2548","TN16","","Greater London","London","England"
"2549","TN17","Cranbrook","Kent","South East England","England"
"2550","TN18","Four Throws","Kent","South East England","England"
"2551","TN19","Burwash","East Sussex","South East England","England"
"2552","TN2","Royal Tunbridge Wells","Kent","South East England","England"
"2553","TN20","Mayfield","East Sussex","South East England","England"
"2554","TN21","Heathfield","East Sussex","South East England","England"
"2555","TN22","Uckfield","East Sussex","South East England","England"
"2556","TN23","Ashford","Kent","South East England","England"
"2557","TN24","Ashford","Kent","South East England","England"
"2558","TN25","Wye","Kent","South East England","England"
"2559","TN26","Shadoxhurst","Kent","South East England","England"
"2560","TN27","Smarden","Kent","South East England","England"
"2561","TN28","New Romney","Kent","South East England","England"
"2562","TN29","St Mary In The Marsh","Kent","South East England","England"
"2563","TN3","Royal Tunbridge Wells","Kent","South East England","England"
"2564","TN30","Tenterden","Kent","South East England","England"
"2565","TN31","Peasmarsh","East Sussex","South East England","England"
"2566","TN32","Salehurst","East Sussex","South East England","England"
"2567","TN33","Battle","East Sussex","South East England","England"
"2568","TN34","Hastings","East Sussex","South East England","England"
"2569","TN35","Hastings","East Sussex","South East England","England"
"2570","TN36","Icklesham","East Sussex","South East England","England"
"2571","TN37","Hastings","East Sussex","South East England","England"
"2572","TN38","Hastings","East Sussex","South East England","England"
"2573","TN39","Bexhill","East Sussex","South East England","England"
"2574","TN4","Royal Tunbridge Wells","Kent","South East England","England"
"2575","TN40","Bexhill","East Sussex","South East England","England"
"2576","TN5","Wadhurst","East Sussex","South East England","England"
"2577","TN6","Crowborough","East Sussex","South East England","England"
"2578","TN7","Hartfield","East Sussex","South East England","England"
"2579","TN8","Edenbridge","Kent","South East England","England"
"2580","TN9","Tonbridge","Kent","South East England","England"
"2581","TQ1","Torquay","Torbay","South West England","England"
"2582","TQ10","South Brent","Devon","South West England","England"
"2583","TQ11","Buckfast","Devon","South West England","England"
"2584","TQ12","Newton Abbot","Devon","South West England","England"
"2585","TQ13","Bovey Tracey","Devon","South West England","England"
"2586","TQ14","Teignmouth","Devon","South West England","England"
"2587","TQ2","Torquay","Torbay","South West England","England"
"2588","TQ3","Torquay","Torbay","South West England","England"
"2589","TQ4","Torquay","Torbay","South West England","England"
"2590","TQ5","","Torbay","South West England","England"
"2591","TQ6","Dartmouth","Devon","South West England","England"
"2592","TQ7","Kingsbridge","Devon","South West England","England"
"2593","TQ8","Salcombe","Devon","South West England","England"
"2594","TQ9","Totnes","Devon","South West England","England"
"2595","TR1","Truro","Cornwall","South West England","England"
"2596","TR10","Penryn","Cornwall","South West England","England"
"2597","TR11","Falmouth","Cornwall","South West England","England"
"2598","TR12","St Keverne","Cornwall","South West England","England"
"2599","TR13","Helston","Cornwall","South West England","England"
"2600","TR14","Camborne","Cornwall","South West England","England"
"2601","TR15","Redruth","Cornwall","South West England","England"
"2602","TR16","Redruth","Cornwall","South West England","England"
"2603","TR17","Marazion","Cornwall","South West England","England"
"2604","TR18","Penzance","Cornwall","South West England","England"
"2605","TR19","Sancreed","Cornwall","South West England","England"
"2606","TR2","Tregoney","Cornwall","South West England","England"
"2607","TR20","Ludgvan","Cornwall","South West England","England"
"2608","TR21","Isles of Scilly","Isles of Scilly","South West England","England"
"2609","TR22","Isles of Scilly","Isles of Scilly","South West England","England"
"2610","TR23","Isles of Scilly","Isles of Scilly","South West England","England"
"2611","TR24","Isles of Scilly","Isles of Scilly","South West England","England"
"2612","TR25","Isles of Scilly","Isles of Scilly","South West England","England"
"2613","TR26","St Ives","Cornwall","South West England","England"
"2614","TR27","Hayle","Cornwall","South West England","England"
"2615","TR3","Perranarworthal","Cornwall","South West England","England"
"2616","TR4","Kenwyn","Cornwall","South West England","England"
"2617","TR5","St Agnes","Cornwall","South West England","England"
"2618","TR6","Perranporth","Cornwall","South West England","England"
"2619","TR7","Newquay","Cornwall","South West England","England"
"2620","TR8","Colan","Cornwall","South West England","England"
"2621","TR9","St Columb Major","Cornwall","South West England","England"
"2622","TS1","","Middlesbrough","North East England","England"
"2623","TS10","Redcar","Redcar and Cleveland","North East England","England"
"2624","TS11","Saltburn Marske and New Marske","Redcar and Cleveland","North East England","England"
"2625","TS12","Skelton","Redcar and Cleveland","North East England","England"
"2626","TS13","Loftus","Redcar and Cleveland","North East England","England"
"2627","TS14","Guisborough","Redcar and Cleveland","North East England","England"
"2628","TS15","Kirklevington","Stockton-on-Tees","North East England","England"
"2629","TS16","Egglescliffe","Stockton-on-Tees","North East England","England"
"2630","TS17","Thornaby","Stockton-on-Tees","North East England","England"
"2631","TS18","","Stockton-on-Tees","North East England","England"
"2632","TS19","","Stockton-on-Tees","North East England","England"
"2633","TS2","","Middlesbrough","North East England","England"
"2634","TS20","Norton","Stockton-on-Tees","North East England","England"
"2635","TS21","Sedgefield","County Durham","North East England","England"
"2636","TS22","Trindon","Stockton-on-Tees","North East England","England"
"2637","TS23","Billingham","Stockton-on-Tees","North East England","England"
"2638","TS24","","Hartlepool","North East England","England"
"2639","TS25","","Hartlepool","North East England","England"
"2640","TS26","","Hartlepool","North East England","England"
"2641","TS27","Monk Hesleden","County Durham","North East England","England"
"2642","TS28","Hutton Henry","County Durham","North East England","England"
"2643","TS29","Trimdon","County Durham","North East England","England"
"2644","TS3","","Middlesbrough","North East England","England"
"2645","TS4","","Middlesbrough","North East England","England"
"2646","TS5","","Middlesbrough","North East England","England"
"2647","TS6","Redcar","Redcar and Cleveland","North East England","England"
"2648","TS7","","Middlesbrough","North East England","England"
"2649","TS8","Stainton","Middlesbrough","North East England","England"
"2650","TS9","Great and Little Broughton","North Yorkshire","Yorkshire and the Humber","England"
"2651","TW1","Richmond","Greater London","London","England"
"2652","TW10","Richmond","Greater London","London","England"
"2653","TW11","Richmond","Greater London","London","England"
"2654","TW12","Richmond","Greater London","London","England"
"2655","TW13","Hounslow","Greater London","London","England"
"2656","TW14","Hounslow","Greater London","London","England"
"2657","TW15","Staines","Surrey","South East England","England"
"2658","TW16","Staines","Surrey","South East England","England"
"2659","TW17","Staines","Surrey","South East England","England"
"2660","TW18","Staines","Surrey","South East England","England"
"2661","TW19","","Surrey","South East England","England"
"2662","TW2","Richmond","Greater London","London","England"
"2663","TW20","Egham","Surrey","South East England","England"
"2664","TW3","Hounslow","Greater London","London","England"
"2665","TW4","Hounslow","Greater London","London","England"
"2666","TW5","Hounslow","Greater London","London","England"
"2667","TW6","Hillingdon","Greater London","London","England"
"2668","TW7","Hounslow","Greater London","London","England"
"2669","TW8","Hounslow","Greater London","London","England"
"2670","TW9","Richmond","Greater London","London","England"
"2671","UB1","Southall","Greater London","London","England"
"2672","UB10","Hillingdon","Greater London","London","England"
"2673","UB11","Hillingdon","Greater London","London","England"
"2674","UB2","Southall","Greater London","London","England"
"2675","UB3","Hillingdon","Greater London","London","England"
"2676","UB4","Hillingdon","Greater London","London","England"
"2677","UB5","Southall","Greater London","London","England"
"2678","UB6","Southall","Greater London","London","England"
"2679","UB7","Hillingdon","Greater London","London","England"
"2680","UB8","Hillingdon","Greater London","London","England"
"2681","UB9","Denham Green","Buckinghamshire","South East England","England"
"2682","W1","","Westminster","London","England"
"2683","W10","Kensington","Greater London","London","England"
"2684","W11","Kensington","Greater London","London","England"
"2685","W12","Hammersmith","Greater London","London","England"
"2686","W13","Ealing","Greater London","London","England"
"2687","W14","Hammersmith","Greater London","London","England"
"2688","W1B","","Westminster","London","England"
"2689","W1C","","Westminster","London","England"
"2690","W1D","","Westminster","London","England"
"2691","W1F","","Westminster","London","England"
"2692","W1G","Paddington","Greater London","London","England"
"2693","W1H","Paddington","Greater London","London","England"
"2694","W1J","","Westminster","London","England"
"2695","W1K","","Westminster","London","England"
"2696","W1M","Paddington","Greater London","London","England"
"2697","W1S","","Westminster","London","England"
"2698","W1T","Camden Town","Greater London","London","England"
"2699","W1U","Paddington","Greater London","London","England"
"2700","W1W","Paddington","Greater London","London","England"
"2701","W2","Paddington","Greater London","London","England"
"2702","W3","Ealing","Greater London","London","England"
"2703","W4","Hounslow","Greater London","London","England"
"2704","W5","Ealing","Greater London","London","England"
"2705","W6","Hammersmith","Greater London","London","England"
"2706","W7","Ealing","Greater London","London","England"
"2707","W8","Kensington","Greater London","London","England"
"2708","W9","Paddington","Greater London","London","England"
"2709","WA1","Birchwood","Warrington","North West England","England"
"2710","WA10","","St Helens","North West England","England"
"2711","WA11","","St Helens","North West England","England"
"2712","WA12","","St Helens","North West England","England"
"2713","WA13","Lymm","Warrington","North West England","England"
"2714","WA14","","Trafford","North West England","England"
"2715","WA15","","Trafford","North West England","England"
"2716","WA16","Knutsford","Cheshire East","North West England","England"
"2717","WA2","Birchwood","Warrington","North West England","England"
"2718","WA3","Croft","Warrington","North West England","England"
"2719","WA4","Appleton","Warrington","North West England","England"
"2720","WA5","Great Sankey","Warrington","North West England","England"
"2721","WA6","Frodsham","Cheshire West and Chester","North West England","England"
"2722","WA7","Runcorn","Halton","North West England","England"
"2723","WA8","Runcorn","Halton","North West England","England"
"2724","WA9","","St Helens","North West England","England"
"2725","WC1","Camden Town","Greater London","London","England"
"2726","WC1A","Camden Town","Greater London","London","England"
"2727","WC1B","Camden Town","Greater London","London","England"
"2728","WC1E","Camden Town","Greater London","London","England"
"2729","WC1H","Camden Town","Greater London","London","England"
"2730","WC1N","Camden Town","Greater London","London","England"
"2731","WC1R","Camden Town","Greater London","London","England"
"2732","WC1V","Camden Town","Greater London","London","England"
"2733","WC1X","Camden Town","Greater London","London","England"
"2734","WC2","","Westminster","London","England"
"2735","WC2A","Camden Town","Greater London","London","England"
"2736","WC2B","","Westminster","London","England"
"2737","WC2E","","Westminster","London","England"
"2738","WC2H","Camden Town","Greater London","London","England"
"2739","WC2N","","Westminster","London","England"
"2740","WC2R","","Westminster","London","England"
"2741","WD1","Watford","Hertfordshire","East of England","England"
"2742","WD17","Watford","Hertfordshire","East of England","England"
"2743","WD18","Watford","Hertfordshire","East of England","England"
"2744","WD19","Watford Rural","Hertfordshire","East of England","England"
"2745","WD2","Potters Bar","Hertfordshire","East of England","England"
"2746","WD23","Potters Bar","Hertfordshire","East of England","England"
"2747","WD24","Watford","Hertfordshire","East of England","England"
"2748","WD25","Watford","Hertfordshire","East of England","England"
"2749","WD3","Chorleywood","Hertfordshire","East of England","England"
"2750","WD4","Kings Langley","Hertfordshire","East of England","England"
"2751","WD5","Abbots Langley","Hertfordshire","East of England","England"
"2752","WD6","Borehamwood","Hertfordshire","East of England","England"
"2753","WD7","Radlett","Hertfordshire","East of England","England"
"2754","WF1","","Wakefield","Yorkshire and the Humber","England"
"2755","WF10","","Wakefield","Yorkshire and the Humber","England"
"2756","WF11","","Wakefield","Yorkshire and the Humber","England"
"2757","WF12","Dewsbury","Kirklees","Yorkshire and the Humber","England"
"2758","WF13","Dewsbury","Kirklees","Yorkshire and the Humber","England"
"2759","WF14","Mirfield","Kirklees","Yorkshire and the Humber","England"
"2760","WF15","Dewsbury","Kirklees","Yorkshire and the Humber","England"
"2761","WF16","Dewsbury","Kirklees","Yorkshire and the Humber","England"
"2762","WF17","Dewsbury","Kirklees","Yorkshire and the Humber","England"
"2763","WF2","","Wakefield","Yorkshire and the Humber","England"
"2764","WF3","","Leeds","Yorkshire and the Humber","England"
"2765","WF4","Crigglestone","Wakefield","Yorkshire and the Humber","England"
"2766","WF5","","Wakefield","Yorkshire and the Humber","England"
"2767","WF6","Normanton","Wakefield","Yorkshire and the Humber","England"
"2768","WF7","Featherstone","Wakefield","Yorkshire and the Humber","England"
"2769","WF8","","Wakefield","Yorkshire and the Humber","England"
"2770","WF9","North Elmsall","Wakefield","Yorkshire and the Humber","England"
"2771","WN1","Pemberton","Wigan","North West England","England"
"2772","WN2","Pemberton","Wigan","North West England","England"
"2773","WN3","Pemberton","Wigan","North West England","England"
"2774","WN4","Pemberton","Wigan","North West England","England"
"2775","WN5","Pemberton","Wigan","North West England","England"
"2776","WN6","Pemberton","Wigan","North West England","England"
"2777","WN7","Leigh","Wigan","North West England","England"
"2778","WN8","Ormskirk","Lancashire","North West England","England"
"2779","WR1","Worcester","Worcestershire","West Midlands","England"
"2780","WR10","Wick","Worcestershire","West Midlands","England"
"2781","WR11","Evesham","Worcestershire","West Midlands","England"
"2782","WR12","Broadway","Worcestershire","West Midlands","England"
"2783","WR13","Colwall","Herefordshire","West Midlands","England"
"2784","WR14","Great Malvern","Worcestershire","West Midlands","England"
"2785","WR15","Tenbury","Worcestershire","West Midlands","England"
"2786","WR2","Worcester","Worcestershire","West Midlands","England"
"2787","WR3","Worcester","Worcestershire","West Midlands","England"
"2788","WR4","Worcester","Worcestershire","West Midlands","England"
"2789","WR5","Worcester","Worcestershire","West Midlands","England"
"2790","WR6","Martley","Worcestershire","West Midlands","England"
"2791","WR7","North Piddle","Worcestershire","West Midlands","England"
"2792","WR8","Worcester","Worcestershire","West Midlands","England"
"2793","WR9","Droitwich","Worcestershire","West Midlands","England"
"2794","WS1","","Walsall","West Midlands","England"
"2795","WS10","West Bromwich","Sandwell","West Midlands","England"
"2796","WS11","Cannock","Staffordshire","West Midlands","England"
"2797","WS12","Cannock","Staffordshire","West Midlands","England"
"2798","WS13","Lichfield","Staffordshire","West Midlands","England"
"2799","WS14","Swinfen and Packington","Staffordshire","West Midlands","England"
"2800","WS15","Brereton","Staffordshire","West Midlands","England"
"2801","WS2","","Walsall","West Midlands","England"
"2802","WS3","Willenhall","Walsall","West Midlands","England"
"2803","WS4","","Walsall","West Midlands","England"
"2804","WS5","","Walsall","West Midlands","England"
"2805","WS6","Great Wyrley","Staffordshire","West Midlands","England"
"2806","WS7","Burntwood","Staffordshire","West Midlands","England"
"2807","WS8","Brownhills","Walsall","West Midlands","England"
"2808","WS9","Aldridge","Walsall","West Midlands","England"
"2809","WV1","","Wolverhampton","West Midlands","England"
"2810","WV10","Wednesfield","Wolverhampton","West Midlands","England"
"2811","WV11","Wednesfield","Wolverhampton","West Midlands","England"
"2812","WV12","Willenhall","Walsall","West Midlands","England"
"2813","WV13","Willenhall","Walsall","West Midlands","England"
"2814","WV14","Wednesfield","Wolverhampton","West Midlands","England"
"2815","WV15","Bridgnorth","Shropshire","West Midlands","England"
"2816","WV16","Chetton","Shropshire","West Midlands","England"
"2817","WV2","","Wolverhampton","West Midlands","England"
"2818","WV3","","Wolverhampton","West Midlands","England"
"2819","WV4","","Wolverhampton","West Midlands","England"
"2820","WV5","Wombourne","Staffordshire","West Midlands","England"
"2821","WV6","","Wolverhampton","West Midlands","England"
"2822","WV7","Albrighton","Shropshire","West Midlands","England"
"2823","WV8","Bilbrook","Staffordshire","West Midlands","England"
"2824","WV9","","Wolverhampton","West Midlands","England"
"2825","YO1","","York","Yorkshire and the Humber","England"
"2826","YO10","Heslington","York","Yorkshire and the Humber","England"
"2827","YO11","Scarborough","North Yorkshire","Yorkshire and the Humber","England"
"2828","YO12","Scarborough","North Yorkshire","Yorkshire and the Humber","England"
"2829","YO13","Stainton Dale","North Yorkshire","Yorkshire and the Humber","England"
"2830","YO14","Muston","North Yorkshire","Yorkshire and the Humber","England"
"2831","YO15","Bridlington","East Riding of Yorkshire","Yorkshire and the Humber","England"
"2832","YO16","Bridlington","East Riding of Yorkshire","Yorkshire and the Humber","England"
"2833","YO17","Settrington","North Yorkshire","Yorkshire and the Humber","England"
"2834","YO18","Pickering","North Yorkshire","Yorkshire and the Humber","England"
"2835","YO19","Wheldrake","York","Yorkshire and the Humber","England"
"2836","YO21","Hutton Mulgrave","North Yorkshire","Yorkshire and the Humber","England"
"2837","YO22","Snainton","North Yorkshire","Yorkshire and the Humber","England"
"2838","YO23","Copmanthorpe","York","Yorkshire and the Humber","England"
"2839","YO24","","York","Yorkshire and the Humber","England"
"2840","YO25","Driffield","East Riding of Yorkshire","Yorkshire and the Humber","England"
"2841","YO26","Upper Poppleton","York","Yorkshire and the Humber","England"
"2842","YO30","Rawcliffe","York","Yorkshire and the Humber","England"
"2843","YO31","","York","Yorkshire and the Humber","England"
"2844","YO32","Earswick","York","Yorkshire and the Humber","England"
"2845","YO41","Catton","East Riding of Yorkshire","Yorkshire and the Humber","England"
"2846","YO42","Barmby Moor","East Riding of Yorkshire","Yorkshire and the Humber","England"
"2847","YO43","Market Weighton","East Riding of Yorkshire","Yorkshire and the Humber","England"
"2848","YO51","Boroughbridge","North Yorkshire","Yorkshire and the Humber","England"
"2849","YO60","Thornton-le-Clay","North Yorkshire","Yorkshire and the Humber","England"
"2850","YO61","Easingwold","North Yorkshire","Yorkshire and the Humber","England"
"2851","YO62","Nawton","North Yorkshire","Yorkshire and the Humber","England"
"2852","YO7","Sowerby","North Yorkshire","Yorkshire and the Humber","England"
"2853","YO8","Selby","North Yorkshire","Yorkshire and the Humber","England"
"2854","ZE1","Sound","Shetland Islands","Scotland","Scotland"
"2855","ZE2","","Shetland Islands","Scotland","Scotland"
"2856","ZE3","Toab","Shetland Islands","Scotland","Scotland"
